CÓDIGO,Departamento,Jurisdicción,Cat.,Nro.,Nombre,T,CALLE,Nº,CALLE2,Nº2,CALLE3,Nº3,BARRIO / LOCALIDAD,TELEFONO,COMENTARIO,CH,CA,JA,EA,CTR,JTR,ETR,Unnamed: 23,Ed. Especial,0,Unnamed: 26,0.1,Unnamed: 28,Ed. Especial.1,0.2,Unnamed: 31,0.3,direccion_completa,Latitud,Longitud,EstrategiaLatLong,Intento
MONTEVIDEO - HABILITADO_002,MONTEVIDEO,ESTE,HABILITADO,2,BEATA IMELDA,D,Cno. MALDONADO,5853,,,,,BELLA ITALIA,2514 07 62,,0.0,0.0,0.0,0.0,0.0,0.0,0.0,,,,,,,,,,,Cno. MALDONADO 5853,-34.83998045522073,-56.12187284667576,,1.0
MONTEVIDEO - HABILITADO_003,MONTEVIDEO,OESTE,HABILITADO,3,CLARA JACKSON DE HEBER,M,Av. Dr. LUIS A. de HERRERA,4102,Av. Dr. LUIS A. de HERRERA,4142,,,ATAHUALPA,2203 63 20,,0.0,0.0,0.0,0.0,0.0,0.0,0.0,,,,,,,,,,,Av. Dr. LUIS A. de HERRERA 4102,-34.860778227934695,-56.18658589551601,,1.0
MONTEVIDEO - HABILITADO_004,MONTEVIDEO,OESTE,HABILITADO,4,CORAZON DE MARIA,D,Av. Dr. LUIS A. de HERRERA,2920,,,,,LARRAÑAGA,2481 96 57,,0.0,0.0,0.0,0.0,0.0,0.0,0.0,,,,,,,,,,,Av. Dr. LUIS A. de HERRERA 2920,-34.875460343877364,-56.15803939788601,,1.0
MONTEVIDEO - HABILITADO_005,MONTEVIDEO,OESTE,HABILITADO,5,CEN. INT. DE ED. INFANTIL (C.I.E.I.),D,Av. E. GARZON,1717,,,,,COLON CENTRO,2320 12 28,,0.0,0.0,0.0,0.0,0.0,0.0,0.0,,,,,,,,,,,Av. E. GARZON 1717,-34.81175140359003,-56.220987918980526,,1.0
MONTEVIDEO - HABILITADO_006,MONTEVIDEO,OESTE,HABILITADO,6,LA DIVINA PROVIDENCIA,D,DIONISIO CORONEL,1012,,,,,LA TEJA,2309 38 69,,0.0,0.0,0.0,0.0,0.0,0.0,0.0,,,,,,,,,,,DIONISIO CORONEL 1012,-34.869273013308344,-56.236837560619364,,1.0
MONTEVIDEO - HABILITADO_9-10,MONTEVIDEO,CENTRO,HABILITADO,9-10,ELBIO FERNANDEZ,T,MALDONADO,1381,CANELONES,1382,,,CENTRO,2908 39 98,,0.0,0.0,0.0,0.0,0.0,0.0,0.0,,,,,,,,,,,MALDONADO 1381,-34.90918639704386,-56.18581335809405,,1.0
MONTEVIDEO - HABILITADO_011,MONTEVIDEO,OESTE,HABILITADO,11,EL CARMEN,T,FELIX OLMEDO,3514,,,,,PRADO,2309 34 93,,0.0,0.0,0.0,0.0,0.0,0.0,0.0,,,,,,,,,,,FELIX OLMEDO 3514,-34.86758942802418,-56.20652851063168,,1.0
MONTEVIDEO - HABILITADO_012,MONTEVIDEO,CENTRO,HABILITADO,12,ELISA QUEIROLO DE MAILHOS,M,NORBERTO ORTIZ,3837,,,,,CERRITO ,2215 16 28,,0.0,0.0,0.0,0.0,0.0,0.0,0.0,,,,,,,,,,,NORBERTO ORTIZ 3837,-34.857743287104924,-56.17092336233712,,1.0
MONTEVIDEO - HABILITADO_014,MONTEVIDEO,CENTRO,HABILITADO,14,CRISTO DIVINO OBRERO,M,ANTILLAS,5475,,,,,CASAVALLE,2222 42 12,,0.0,0.0,0.0,0.0,0.0,0.0,0.0,,,,,,,,,,,ANTILLAS 5475,-34.82533476000441,-56.17946187159479,,1.0
MONTEVIDEO - HABILITADO_017,MONTEVIDEO,CENTRO,HABILITADO,17,INMACULADA CONCEPCION,T,MERCEDES,984,,,,,CENTRO,2902 96 18,,0.0,0.0,0.0,0.0,0.0,0.0,0.0,,,,,,,,,,,MERCEDES 984,-34.90437024491925,-56.19528594204059,,1.0
MONTEVIDEO - HABILITADO_018,MONTEVIDEO,CENTRO,HABILITADO,18,INMACULADO CORAZON DE MARIA,M,MERCEDES,1371,MERCEDES,1383,,,CORDON,2900 61 37,,0.0,0.0,0.0,0.0,0.0,0.0,0.0,,,,,,,,,,,MERCEDES 1371,-34.9035875359492,-56.18683073453857,,1.0
MONTEVIDEO - HABILITADO_019,MONTEVIDEO,CENTRO,HABILITADO,19,INSTITUTO CRANDON,M,JUAN RAMON GOMEZ,2712,,,,,LA BLANQUEADA,2487 33 75,,0.0,0.0,0.0,0.0,0.0,0.0,0.0,,,,,,,,,,,JUAN RAMON GOMEZ 2712,-34.88777843906807,-56.16153093517678,,1.0
MONTEVIDEO - HABILITADO_020,MONTEVIDEO,ESTE,HABILITADO,20,JESUS MARIA,M,EDMUNDO BIANCHI,2228,Gral. MÁXIMO TAJES,6604,AV. ITALIA,6604,CARRASCO NORTE,2600 15 00 / 2604 42 50,,0.0,0.0,0.0,0.0,0.0,0.0,0.0,,,,,,,,,,,EDMUNDO BIANCHI 2228,-34.87599164258141,-56.061856457872665,,1.0
MONTEVIDEO - HABILITADO_021,MONTEVIDEO,CENTRO,HABILITADO,21,JOSE PEDRO VARELA,D,COLONIA,1645,,,,,CORDON,2409 70 20,,0.0,0.0,0.0,0.0,0.0,0.0,0.0,,,,,,,,,,,COLONIA 1645,-34.90279743363568,-56.18126874233826,,1.0
MONTEVIDEO - HABILITADO_022,MONTEVIDEO,CENTRO,HABILITADO,22,CEN. ED. PRIM. ADVENTISTA (C.E.P.A.),D,Ing. JOSE SERRATO,3632,Ing. JOSE SERRATO,3630,,,MERCADO MODELO,2215 94 56,,0.0,0.0,0.0,0.0,0.0,0.0,0.0,,,,,,,,,,,Ing. JOSE SERRATO 3632,-34.85499785882051,-56.15941160796703,,1.0
MONTEVIDEO - HABILITADO_023,MONTEVIDEO,OESTE,HABILITADO,23,MADRE PAULINA,D,CARMELO DE ARZADUM,6023,,,,,NUEVO PARIS,2309 70 77,,0.0,0.0,0.0,0.0,0.0,0.0,0.0,,,,,,,,,,,CARMELO DE ARZADUM 6023,-34.828346000001126,-56.24321699999996,,1.0
MONTEVIDEO - HABILITADO_024,MONTEVIDEO,CENTRO,HABILITADO,24,MARIA AUXILIADORA (I.M.A.),M,CANELONES,1701,,,,,CORDON,2418 46 82,,0.0,0.0,0.0,0.0,0.0,0.0,0.0,,,,,,,,,,,CANELONES 1701,-34.907682174106704,-56.177929219322074,,1.0
MONTEVIDEO - HABILITADO_025,MONTEVIDEO,ESTE,HABILITADO,25,SAINT DAVID'S SCHOOL,D,PEDRO BERRO,774,JUAN MARÍA PÉREZ,2740,,,POCITOS,2710 24 41 / 2712 02 37,,0.0,0.0,0.0,0.0,0.0,0.0,0.0,,,,,,,,,,,PEDRO BERRO 774,-34.916809810988255,-56.153217890848005,,1.0
MONTEVIDEO - HABILITADO_026,MONTEVIDEO,OESTE,HABILITADO,26,Ntra. Sra. DE MONTSERRAT,D,ALASKA,748,,,,, TRES OMBUES,2308 78 10,,0.0,0.0,0.0,0.0,0.0,0.0,0.0,,,,,,,,,,,ALASKA 748,-34.8566156882748,-56.24269247879043,,1.0
MONTEVIDEO - HABILITADO_027,MONTEVIDEO,OESTE,HABILITADO,27,MARIANO,T,Av. MILLAN,4181,,,,,P. DE LAS DURANAS,2309 85 12,,0.0,0.0,0.0,0.0,0.0,0.0,0.0,,,,,,,,,,,Av. MILLAN 4181,-34.84857347139149,-56.1990192324097,,1.0
MONTEVIDEO - HABILITADO_028,MONTEVIDEO,CENTRO,HABILITADO,28,MISERICORDISTA,D,Av. SAN MARTIN,3820,,,,,CERRITO,2216 09 80,,0.0,0.0,0.0,0.0,0.0,0.0,0.0,,,,,,,,,,,Av. SAN MARTIN 3820,-34.85525510627988,-56.17340929092638,,1.0
MONTEVIDEO - HABILITADO_032,MONTEVIDEO,OESTE,HABILITADO,32,Sta. MARIA DE LA AYUDA,D,BOGOTA,3589,,,,,CERRO,2311 10 20,,0.0,0.0,0.0,0.0,0.0,0.0,0.0,,,,,,,,,,,BOGOTA 3589,-34.88730126668462,-56.25209561409568,,1.0
MONTEVIDEO - HABILITADO_034,MONTEVIDEO,CENTRO,HABILITADO,34,Ntra. Sra. DEL HUERTO,T,SAN JOSE,990,,,,,CENTRO,2900 47 88,,0.0,0.0,0.0,0.0,0.0,0.0,0.0,,,,,,,,,,,SAN JOSE 990,-34.90721788460705,-56.19495692525198,,1.0
MONTEVIDEO - HABILITADO_035,MONTEVIDEO,CENTRO,HABILITADO,35,Ntra. Sra. DEL LUJAN,D,Dr. WASHINGTON BELTRAN,1868,,,,,LA BLANQUEADA,2487 77 63,,0.0,0.0,0.0,0.0,0.0,0.0,0.0,,,,,,,,,,,Dr. WASHINGTON BELTRAN 1868,-34.89196592801493,-56.142959076264866,,1.0
MONTEVIDEO - HABILITADO_036,MONTEVIDEO,OESTE,HABILITADO,36,CEN. ED. LIBANO,M,MOLINOS DE RAFFO,926,,,,,SAYAGO,2359 32 20,,0.0,0.0,0.0,0.0,0.0,0.0,0.0,,,,,,,,,,,MOLINOS DE RAFFO 926,-34.84000598031274,-56.20870401715262,,1.0
MONTEVIDEO - HABILITADO_037,MONTEVIDEO,ESTE,HABILITADO,37,Ntra. Sra. DE LOURDES,T,AMAZONAS,1636,,,,,MALVIN,2619 32 69,,0.0,0.0,0.0,0.0,0.0,0.0,0.0,,,,,,,,,,,AMAZONAS 1636,-34.8914256500347,-56.10099436864933,,1.0
MONTEVIDEO - HABILITADO_039,MONTEVIDEO,ESTE,HABILITADO,39,HARWOOD SCHOOL,D,SIRACUSA,2380,,,,,CARRASCO,2601 93 60,,0.0,0.0,0.0,0.0,0.0,0.0,0.0,,,,,,,,,,,SIRACUSA 2380,-34.87522946995975,-56.08867997485743,,1.0
MONTEVIDEO - HABILITADO_041,MONTEVIDEO,OESTE,HABILITADO,41,Ntra. Sra. DEL PERPETUO SOCORRO,T,Av. SAYAGO,1090,,,,,SAYAGO,2359 43 52,,0.0,0.0,0.0,0.0,0.0,0.0,0.0,,,,,,,,,,,Av. SAYAGO 1090,-34.832751923621075,-56.21522902888776,,1.0
MONTEVIDEO - HABILITADO_043,MONTEVIDEO,CENTRO,HABILITADO,43,PALLOTTI,T,Av. Dr. LUIS A. de HERRERA,2882,,,,,LARRAÑAGA,2487 19 71,,0.0,0.0,0.0,0.0,0.0,0.0,0.0,,,,,,,,,,,Av. Dr. LUIS A. de HERRERA 2882,-34.87635588493483,-56.1573179654967,,1.0
MONTEVIDEO - HABILITADO_044,MONTEVIDEO,OESTE,HABILITADO,44,COLEGIO PIO IX,D,Av. LEZICA,6375,,,,,LEZICA,2322 80 77,,0.0,0.0,0.0,0.0,0.0,0.0,0.0,,,,,,,,,,,Av. LEZICA 6375,-34.79611631440545,-56.248476423550464,,1.0
MONTEVIDEO - HABILITADO_045,MONTEVIDEO,CENTRO,HABILITADO,45,REGINA MARTYRUM,M,Ing. JOSE SERRATO,3536,,,,,CERRITO ,2215 34 19,,0.0,0.0,0.0,0.0,0.0,0.0,0.0,,,,,,,,,,,Ing. JOSE SERRATO 3536,-34.856288630838215,-56.15620317575599,,1.0
MONTEVIDEO - HABILITADO_046,MONTEVIDEO,ESTE,HABILITADO,46,SAGRADA FAMILIA,D,Av. ESTANISLAO LOPEZ,4568,Av. ITALIA,4472,,,MALVIN,2619 09 27,,0.0,0.0,0.0,0.0,0.0,0.0,0.0,,,,,,,,,,,Av. ESTANISLAO LOPEZ 4568,-34.88819976393195,-56.11050942701353,,1.0
MONTEVIDEO - HABILITADO_047,MONTEVIDEO,CENTRO,HABILITADO,47,SAGRADA FAMILIA,D,Av. LIBERTADOR J. A. LAVALLEJA,1960,,,,,AGUADA,2924 05 59,,0.0,0.0,0.0,0.0,0.0,0.0,0.0,,,,,,,,,,,Av. LIBERTADOR J. A. LAVALLEJA 1960,-34.89465446692829,-56.1886501687853,,1.0
MONTEVIDEO - HABILITADO_048,MONTEVIDEO,CENTRO,HABILITADO,48,SAGRADO CORAZON,T,Av. GARIBALDI,1682,Av. GARIBALDI,1693,,,REDUCTO,2209 17 31,,0.0,0.0,0.0,0.0,0.0,0.0,0.0,,,,,,,,,,,Av. GARIBALDI 1682,-34.875080534483445,-56.1827002999799,,1.0
MONTEVIDEO - HABILITADO_050,MONTEVIDEO,ESTE,HABILITADO,50,SAGRADO CORAZON DE JESUS,M,Cno. MALDONADO,6641,,,,,PUNTA DE RIELES,2514 22 22,,0.0,0.0,0.0,0.0,0.0,0.0,0.0,,,,,,,,,,,Cno. MALDONADO 6641,-34.82608783792823,-56.104873247315574,,1.0
MONTEVIDEO - HABILITADO_51-52,MONTEVIDEO,CENTRO,HABILITADO,51-52,SEMINARIO ,D,SORIANO,1472,SORIANO,1473,,,CORDON,2418 40 75,,0.0,0.0,0.0,0.0,0.0,0.0,0.0,,,,,,,,,,,SORIANO 1472,-34.90727199208638,-56.183240576305174,,1.0
MONTEVIDEO - HABILITADO_054,MONTEVIDEO,OESTE,HABILITADO,54,INT. ARMENIO NUBARIAN,T,Av. AGRACIADA,2850,,,,,AGUADA,2208 06 28,,0.0,0.0,0.0,0.0,0.0,0.0,0.0,,,,,,,,,,,Av. AGRACIADA 2850,-34.8780147887689,-56.19644758952947,,1.0
MONTEVIDEO - HABILITADO_056,MONTEVIDEO,OESTE,HABILITADO,56,SAN FRANCISCO DE ASIS,D,JOSE LLUPES,4551,,,,,NUEVO PARIS,2305 43 97,,0.0,0.0,0.0,0.0,0.0,0.0,0.0,,,,,,,,,,,JOSE LLUPES 4551,-34.85145238225669,-56.22836872712846,,1.0
MONTEVIDEO - HABILITADO_057,MONTEVIDEO,OESTE,HABILITADO,57,SAN FRANCISCO DE SALES,D,Bv. ARTIGAS,4365,,,,,BELLA VISTA,2203 32 44,,0.0,0.0,0.0,0.0,0.0,0.0,0.0,,,,,,,,,,,Bv. ARTIGAS 4365,-34.87233012678293,-56.2008561110978,,1.0
MONTEVIDEO - HABILITADO_059,MONTEVIDEO,OESTE,HABILITADO,59,SAN JOSE,D,Av. E. GARZON,1867,,,,,COLON,2320 04 40,,0.0,0.0,0.0,0.0,0.0,0.0,0.0,,,,,,,,,,,Av. E. GARZON 1867,-34.807769393110746,-56.22172028414394,,1.0
MONTEVIDEO - HABILITADO_060,MONTEVIDEO,OESTE,HABILITADO,60,SAN JOSE,T,CARLOS MARIA RAMIREZ,2090,,,,,CERRO NORTE,2311 16 72,,0.0,0.0,0.0,0.0,0.0,0.0,0.0,,,,,,,,,,,CARLOS MARIA RAMIREZ 2090,-34.875174983896784,-56.25970012866948,,1.0
MONTEVIDEO - HABILITADO_064,MONTEVIDEO,OESTE,HABILITADO,64,SAN JOSE LEOPOLDO GIANELLI,T,Cno. LA CAPILLA,3700,,,,,P. DE LA ARENA,2311 43 01,,0.0,0.0,0.0,0.0,0.0,0.0,0.0,,,,,,,,,,,Cno. LA CAPILLA 3700,-34.77276981174266,-56.12837945804523,,1.0
MONTEVIDEO - HABILITADO_065,MONTEVIDEO,ESTE,HABILITADO,65,SAN JUAN BAUTISTA,T,LUIS B. CAVIA,2830,,,,,POCITOS,2708 33 41,,0.0,0.0,0.0,0.0,0.0,0.0,0.0,,,,,,,,,,,LUIS B. CAVIA 2830,-34.91082138695084,-56.15495473789262,,1.0
MONTEVIDEO - HABILITADO_067,MONTEVIDEO,OESTE,HABILITADO,67,SAN LUIS,T,Cno.  LECOCQ,1325,,,,,CONCILIACION,2320 03 97,,0.0,0.0,0.0,0.0,0.0,0.0,0.0,,,,,,,,,,,Cno.  LECOCQ 1325,-34.81519480337297,-56.23213895653155,,1.0
MONTEVIDEO - HABILITADO_068,MONTEVIDEO,CENTRO,HABILITADO,68,SAN MIGUEL,M,CONCEPCION ARENAL,1893,,,,,VILLA MUÑOZ,2200 53 18,,0.0,0.0,0.0,0.0,0.0,0.0,0.0,,,,,,,,,,,CONCEPCION ARENAL 1893,-34.88175212088973,-56.17893325113356,,1.0
MONTEVIDEO - HABILITADO_069,MONTEVIDEO,CENTRO,HABILITADO,69,BILINGÜE CIUDAD VIEJA,D,MACIEL,1371/3 - 1377,BUENOS AIRES,182,ALZAIBAR,1328,CIUDAD VIEJA,2915 52 80,DIRECCIÓN 2 es anexo maternal,0.0,0.0,0.0,0.0,0.0,0.0,0.0,,,,,,,,,,,MACIEL 1371/3 - 1377,-34.908994605056506,-56.21109326359511,,1.0
MONTEVIDEO - HABILITADO_070,MONTEVIDEO,OESTE,HABILITADO,70,Sta. CLARA,D,BOGOTA,3275,,,,,CERRO,2311 11 81,,0.0,0.0,0.0,0.0,0.0,0.0,0.0,,,,,,,,,,,BOGOTA 3275,-34.892904728844165,-56.250938489332896,,1.0
MONTEVIDEO - HABILITADO_071,MONTEVIDEO,ESTE,HABILITADO,71,Sta. ELENA,D,Av. Gral. RIVERA,4212,Av. Gral. RIVERA,4331,,,BUCEO,2619 27 19,,0.0,0.0,0.0,0.0,0.0,0.0,0.0,,,,,,,,,,,Av. Gral. RIVERA 4212,-34.89618336304301,-56.122057445457905,,1.0
MONTEVIDEO - HABILITADO_072,MONTEVIDEO,ESTE,HABILITADO,72,Sta. LUISA DE MARILLAC,T,LARRAVIDE,2406,,,,,UNION,2508 42 59,,0.0,0.0,0.0,0.0,0.0,0.0,0.0,,,,,,,,,,,LARRAVIDE 2406,-34.87534510565991,-56.13718053675905,,1.0
MONTEVIDEO - HABILITADO_073,MONTEVIDEO,CENTRO,HABILITADO,73,Sta. MARIA,T,8 DE OCTUBRE,2966,8 DE OCTUBRE,2980,8 DE OCTUBRE,2982,LA BLANQUEADA,2487 22 12,,0.0,0.0,0.0,0.0,0.0,0.0,0.0,,,,,,,,,,,8 DE OCTUBRE 2966,-34.88461215945922,-56.15601289251302,,1.0
MONTEVIDEO - HABILITADO_074,MONTEVIDEO,CENTRO,HABILITADO,74,Sta. TERESA DE JESUS,T,SORIANO,1570,,,,,CORDON,2418 41 57,,0.0,0.0,0.0,0.0,0.0,0.0,0.0,,,,,,,,,,,SORIANO 1570,-34.90715683134742,-56.18168410551828,,1.0
MONTEVIDEO - HABILITADO_075,MONTEVIDEO,CENTRO,HABILITADO,75,SANTO DOMINGO,M,Av. Gral. RIVERA,2257,,,,,CORDON,2400 73 58,,0.0,0.0,0.0,0.0,0.0,0.0,0.0,,,,,,,,,,,Av. Gral. RIVERA 2257,-34.90195559257747,-56.16614996956708,,1.0
MONTEVIDEO - HABILITADO_076,MONTEVIDEO,ESTE,HABILITADO,76,SANTO TOMAS DE AQUINO,T,8 DE OCTUBRE,4673,8 DE OCTUBRE,4675,,, MAROÑAS,2514 19 27,,0.0,0.0,0.0,0.0,0.0,0.0,0.0,,,,,,,,,,,8 DE OCTUBRE 4673,-34.85883010941352,-56.13379047099555,,1.0
MONTEVIDEO - HABILITADO_077,MONTEVIDEO,ESTE,HABILITADO,77,ESCUELA INT. HEBREO URUGUAYA,D,JOSE BENITO LAMAS,2841,JOSE BENITO LAMAS,2835,JOSE BENITO LAMAS,2845,POCITOS,2708 17 12,,0.0,0.0,0.0,0.0,0.0,0.0,0.0,,,,,,,,,,,JOSE BENITO LAMAS 2841,-34.91256282931972,-56.155193153204124,,1.0
MONTEVIDEO - HABILITADO_078,MONTEVIDEO,ESTE,HABILITADO,78,JUAN ZORRILLA DE SAN MARTIN,T,JOSE ELLAURI,527,,,,,PUNTA CARRETAS,2711 91 38,,0.0,0.0,0.0,0.0,0.0,0.0,0.0,,,,,,,,,,,JOSE ELLAURI 527,-34.92095914231549,-56.15738994401105,,1.0
MONTEVIDEO - HABILITADO_079,MONTEVIDEO,CENTRO,HABILITADO,79,MARIA INMACULADA,M,SAINT BOIS ,5048,,,,,ITUZAINGO,2514 61 08,,0.0,0.0,0.0,0.0,0.0,0.0,0.0,,,,,,,,,,,SAINT BOIS  5048,-34.841143464968596,-56.147676158730974,,1.0
MONTEVIDEO - HABILITADO_080,MONTEVIDEO,CENTRO,HABILITADO,80,Ntra. Sra. DE FATIMA,T,BRITO DEL PINO,1344,,,,,PARQUE BATLLE,2708 43 11,,0.0,0.0,0.0,0.0,0.0,0.0,0.0,,,,,,,,,,,BRITO DEL PINO 1344,-34.86702012029063,-56.21978784006591,,1.0
MONTEVIDEO - HABILITADO_084,MONTEVIDEO,ESTE,HABILITADO,84,LA MENNAIS,D,Ing. ACQUISTAPACE,1701,,,,,PUNTA GORDA,2600 56 20,,0.0,0.0,0.0,0.0,0.0,0.0,0.0,,,,,,,,,,,Ing. ACQUISTAPACE 1701,-34.88934020897679,-56.08966194678325,,1.0
MONTEVIDEO - HABILITADO_085,MONTEVIDEO,CENTRO,HABILITADO,85,NOTRE DAME,D,Av. JOSE BELLONI,3350,,,,,J. DEL HIPODROMO,2514 09 33,,0.0,0.0,0.0,0.0,0.0,0.0,0.0,,,,,,,,,,,Av. JOSE BELLONI 3350,-34.84593783432484,-56.13483866957414,,1.0
MONTEVIDEO - HABILITADO_087,MONTEVIDEO,CENTRO,HABILITADO,87,DOMINGO SAVIO,M,GERMAN PICCIOLLI,3272,,,,,MAROÑAS,2514 00 58,,0.0,0.0,0.0,0.0,0.0,0.0,0.0,,,,,,,,,,,GERMAN PICCIOLLI 3272,-34.853369618301194,-56.140989100611876,,1.0
MONTEVIDEO - HABILITADO_088,MONTEVIDEO,ESTE,HABILITADO,88,GABRIELA MISTRAL,T,AMSTERDAM,1483,AMSTERDAM,1471,,,MALVIN,2619 25 11,,0.0,0.0,0.0,0.0,0.0,0.0,0.0,,,,,,,,,,,AMSTERDAM 1483,-34.894451994215494,-56.11441828558335,,1.0
MONTEVIDEO - HABILITADO_089,MONTEVIDEO,ESTE,HABILITADO,89,Sta.  RITA,T,TORONTO,1597,,,,,CARRASCO,2600 46 10,,0.0,0.0,0.0,0.0,0.0,0.0,0.0,,,,,,,,,,,TORONTO 1597,-34.88982894447312,-56.079199026880765,,1.0
MONTEVIDEO - HABILITADO_090,MONTEVIDEO,ESTE,HABILITADO,90,COOP. EDUCATIVA DON ORIONE,M,Av. DE LAS INSTRUCCIONES,4142,,,,,MANGA,2222 33 11,,0.0,0.0,0.0,0.0,0.0,0.0,0.0,,,,,,,,,,,Av. DE LAS INSTRUCCIONES 4142,-34.78389808992069,-56.138995610509795,,1.0
MONTEVIDEO - HABILITADO_092,MONTEVIDEO,OESTE,HABILITADO,92,SAN PABLO,T,VENANCIO BENAVIDEZ,3612,VENANCIO BENAVIDEZ,3616,Av. MILLAN,3615,PRADO,2336 49 14,,0.0,0.0,0.0,0.0,0.0,0.0,0.0,,,,,,,,,,,VENANCIO BENAVIDEZ 3612,-34.86178684219238,-56.195163839353846,,1.0
MONTEVIDEO - HABILITADO_093,MONTEVIDEO,CENTRO,HABILITADO,93,FEDERICO OZANAM,D,CIRENE,3996,,,,,VILLA ESPAÑOLA,2508 80 64,,0.0,0.0,0.0,0.0,0.0,0.0,0.0,,,,,,,,,,,CIRENE 3996,-34.86691643782719,-56.14140424261594,,1.0
MONTEVIDEO - HABILITADO_095,MONTEVIDEO,ESTE,HABILITADO,95,JOHN F. KENNEDY,T,MISSOURI,1485,PILCOMAYO,5229,,,MALVIN,2619 12 97,DIRECCIÓN 2 es el Jardín,0.0,0.0,0.0,0.0,0.0,0.0,0.0,,,,,,,,,,,MISSOURI 1485,-34.89416124850456,-56.096246209677666,,1.0
MONTEVIDEO - HABILITADO_096,MONTEVIDEO,ESTE,HABILITADO,96,RICHARD ANDERSON,D,JOSE ITURRIAGA,3535,JULIO CÉSAR,1092,,,BUCEO,2622 10 23,,0.0,0.0,0.0,0.0,0.0,0.0,0.0,,,,,,,,,,,JOSE ITURRIAGA 3535,-34.906306356919536,-56.13549161033655,,1.0
MONTEVIDEO - HABILITADO_098,MONTEVIDEO,CENTRO,HABILITADO,98,Sta. TERESITA DE LISIEUX,M,Cno. PEDRO DE MENDOZA,6025,,,,,PIDERAS BLANCAS,2222 32 14,,0.0,0.0,0.0,0.0,0.0,0.0,0.0,,,,,,,,,,,Cno. PEDRO DE MENDOZA 6025,-34.79319745286312,-56.165310408788535,,1.0
MONTEVIDEO - HABILITADO_099,MONTEVIDEO,CENTRO,HABILITADO,99,JOSE  ARTIGAS,D,Av. Dr. LUIS A. de HERRERA,3826,,,,,BRAZO ORIENTAL,2200 88 15,,0.0,0.0,0.0,0.0,0.0,0.0,0.0,,,,,,,,,,,Av. Dr. LUIS A. de HERRERA 3826,-34.863004893945266,-56.17837656808072,,1.0
MONTEVIDEO - HABILITADO_100,MONTEVIDEO,ESTE,HABILITADO,100,LATINOAMERICANO,T,ECHEVERRIA,530,ECHEVERRIA,532,ECHEVERRIA,542,PUNTA CARRETAS,2710 57 12,,0.0,0.0,0.0,0.0,0.0,0.0,0.0,,,,,,,,,,,ECHEVERRIA 530,-34.91677293610803,-56.161515058487296,,1.0
MONTEVIDEO - HABILITADO_101,MONTEVIDEO,CENTRO,HABILITADO,101,STA. BERNARDITA,D,Dr. JOSE MARTIRENE,5147,,,,,CASAVALLE,2215 58 52,,0.0,0.0,0.0,0.0,0.0,0.0,0.0,,,,,,,,,,,Dr. JOSE MARTIRENE 5147,-34.83234700000113,-56.17399899999994,,1.0
MONTEVIDEO - HABILITADO_102,MONTEVIDEO,CENTRO,HABILITADO,102,OBRA BANNEUX,D,Bv. APARICIO SARAVIA,3732,,,,,CASAVALLE,2211 83 96,,0.0,0.0,0.0,0.0,0.0,0.0,0.0,,,,,,,,,,,Bv. APARICIO SARAVIA 3732,-34.834815146544855,-56.162150383439695,,1.0
MONTEVIDEO - HABILITADO_103,MONTEVIDEO,OESTE,HABILITADO,103,PEDRO POVEDA,T,GARCIA PEÑA,2962,,,,,ATAHUALPA,2200 15 22,,0.0,0.0,0.0,0.0,0.0,0.0,0.0,,,,,,,,,,,GARCIA PEÑA 2962,-34.87044628937713,-56.18716943145153,,1.0
MONTEVIDEO - HABILITADO_104,MONTEVIDEO,CENTRO,HABILITADO,104,DIVINA PASTORA,D,YACUY,4271,,,,,PIEDRAS BLANCAS,2215 47 24,,0.0,0.0,0.0,0.0,0.0,0.0,0.0,,,,,,,,,,,YACUY 4271,-34.82618995401723,-56.14585513766945,,1.0
MONTEVIDEO - HABILITADO_105,MONTEVIDEO,CENTRO,HABILITADO,105,Esc. Primaria Logosófica 11 DE AGOSTO,D,Av. Dr. MANUEL ALBO,2727,,,,,LA BLANQUEADA,2480 25 70,,0.0,0.0,0.0,0.0,0.0,0.0,0.0,,,,,,,,,,,Av. Dr. MANUEL ALBO 2727,-34.89027273307422,-56.15991575295838,,1.0
MONTEVIDEO - HABILITADO_110,MONTEVIDEO,ESTE,HABILITADO,110,Instituto Hebreo Uruguayo YAVNE,D,LUIS B. CAVIA,2800,LUIS B. CAVIA,2880,LUIS B CAVIA,2788,POCITOS,2708 01 00 / 2708 78 69,DIRECCIÓN 3 es el Jardín,0.0,0.0,0.0,0.0,0.0,0.0,0.0,,,,,,,,,,,LUIS B. CAVIA 2800,-34.910131911109744,-56.15499102980656,,1.0
MONTEVIDEO - HABILITADO_111,MONTEVIDEO,ESTE,HABILITADO,111,QUEEN´S SCHOOL,D,LIBERTAD,2730,LUIS B. CAVIA,2779,Av. BRASIL,2916,POCITOS,2708 09 24,,0.0,0.0,0.0,0.0,0.0,0.0,0.0,,,,,,,,,,,LIBERTAD 2730,-34.90910937294539,-56.155239805941044,,1.0
MONTEVIDEO - HABILITADO_117,MONTEVIDEO,ESTE,HABILITADO,117,DON BOSCO,M,Cno. MALDONADO,7777,,,,,PUNTA DE RIELES,2222 30 44,,0.0,0.0,0.0,0.0,0.0,0.0,0.0,,,,,,,,,,,Cno. MALDONADO 7777,-34.82513426030009,-56.101944968694426,,1.0
MONTEVIDEO - HABILITADO_120,MONTEVIDEO,OESTE,HABILITADO,120,EVANGELICO BETHESDA,M,Dr. CARLOS MARIA DE LA PENA,4164,,,,,PRADO,2309 34 22,,0.0,0.0,0.0,0.0,0.0,0.0,0.0,,,,,,,,,,,Dr. CARLOS MARIA DE LA PENA 4164,-34.855091792076635,-56.20507166112907,,1.0
MONTEVIDEO - HABILITADO_121,MONTEVIDEO,ESTE,HABILITADO,121,COOP. MALVIN NORTE -VICMAN-,D,Cno. CARRASCO,4490,,,,,MALVIN NORTE,2525 42 76,,0.0,0.0,0.0,0.0,0.0,0.0,0.0,,,,,,,,,,,Cno. CARRASCO 4490,-34.87226313217924,-56.120735268895544,,1.0
MONTEVIDEO - HABILITADO_122,MONTEVIDEO,OESTE,HABILITADO,122,Instituto Educacional NERSESIAN,T,Av. AGRACIADA,2842,Av. AGRACIADA,2846,,,CAPURRO,2209 01 65,,0.0,0.0,0.0,0.0,0.0,0.0,0.0,,,,,,,,,,,Av. AGRACIADA 2842,-34.8783092147997,-56.19628551574253,,1.0
MONTEVIDEO - HABILITADO_125,MONTEVIDEO,OESTE,HABILITADO,125,SAN JOSE DE LA PROVIDENCIA,T,CARLOS MARIA RAMIREZ,56,,,,,BELVEDERE,2308 33 11,,0.0,0.0,0.0,0.0,0.0,0.0,0.0,,,,,,,,,,,CARLOS MARIA RAMIREZ 56,-34.8553739037056,-56.223078915882255,,1.0
MONTEVIDEO - HABILITADO_127,MONTEVIDEO,CENTRO,HABILITADO,127,Bautista DANIEL MC. MURRAY,T,Av. SAN MARTIN,4016,,,,,CERRITO,2216 28 65,,0.0,0.0,0.0,0.0,0.0,0.0,0.0,,,,,,,,,,,Av. SAN MARTIN 4016,-34.85213929564981,-56.171215421537916,,1.0
MONTEVIDEO - HABILITADO_131,MONTEVIDEO,ESTE,HABILITADO,131,JEAN PIAGET,D,MASSINI,3134,Av. BRASIL,2586,BALTASAR VARGAS,1184,POCITOS,2708 92 99,,0.0,0.0,0.0,0.0,0.0,0.0,0.0,,,,,,,,,,,MASSINI 3134,-34.91051656468993,-56.197927329420445,,1.0
MONTEVIDEO - HABILITADO_132,MONTEVIDEO,CENTRO,HABILITADO,132,NUEVA CULTURA,C,Av. Dr. LUIS A. de HERRERA,2762 - 2762bis,Av. Dr. LUIS A. de HERRERA,2764 bis,Av. Dr. LUIS A. de HERRERA,2758,UNION,2487 30 89,Apto. 002 y 003,0.0,0.0,0.0,0.0,0.0,0.0,0.0,,,,,,,,,,,Av. Dr. LUIS A. de HERRERA 2762 - 2762bis,-34.851159374142924,-56.275071532972156,,1.0
MONTEVIDEO - HABILITADO_133,MONTEVIDEO,CENTRO,HABILITADO,133,JOSE BENITO LAMAS,D,IBIROCAHY,4091,,,,,AIRES PUROS,2208 21 59,,0.0,0.0,0.0,0.0,0.0,0.0,0.0,,,,,,,,,,,IBIROCAHY 4091,-34.85182698733339,-56.18382335368554,,1.0
MONTEVIDEO - HABILITADO_134,MONTEVIDEO,OESTE,HABILITADO,134,JESUS ISASO,D,HAITI,1606,SANTIN C. ROSSI,4454,,,CERRO,2311 95 15,DIRECCIÓN 2 es Jardin,0.0,0.0,0.0,0.0,0.0,0.0,0.0,,,,,,,,,,,HAITI 1606,-34.871767202261765,-56.248679399987296,,1.0
MONTEVIDEO - HABILITADO_135,MONTEVIDEO,ESTE,HABILITADO,135,MIGUEL DE CERVANTES,D,MAIPU,1751,,,,,PARQUE BATLLE,2480 23 50,,0.0,0.0,0.0,0.0,0.0,0.0,0.0,,,,,,,,,,,MAIPU 1751,-34.89530308674663,-56.145323308891896,,1.0
MONTEVIDEO - HABILITADO_136,MONTEVIDEO,CENTRO,HABILITADO,136,AGUSTIN FERREIRO,D,RIVADAVIA,2085,,,,,LA COMERCIAL,2203 62 85,,0.0,0.0,0.0,0.0,0.0,0.0,0.0,,,,,,,,,,,RIVADAVIA 2085,-34.881014690158636,-56.17351759476455,,1.0
MONTEVIDEO - HABILITADO_137,MONTEVIDEO,ESTE,HABILITADO,137,AMERICA,T,RIZAL ,3577,,,,,BUCEO,2622 28 55,,0.0,0.0,0.0,0.0,0.0,0.0,0.0,,,,,,,,,,,RIZAL  3577,-34.90103011664506,-56.13601294963757,,1.0
MONTEVIDEO - HABILITADO_138,MONTEVIDEO,CENTRO,HABILITADO,138,INGLES,D,FELICIANO RODRIGUEZ,2776,BRITO DEL PINO,1525,AMÉRICO RICALDONI,2838,PARQUE BATLLE,Dir.1: 2707 48 94    /    Dir.2: 2708 28 67    /    Dir.3: 2708 46 59    /    Dir.4: 2709 28 76 (*),DIRECCIÓN 4 (*): RAFAEL PASTORIZA 1469,0.0,0.0,0.0,0.0,0.0,0.0,0.0,,,,,,,,,,,FELICIANO RODRIGUEZ 2776,-34.9000898166422,-56.15480320301226,,1.0
MONTEVIDEO - HABILITADO_142,MONTEVIDEO,CENTRO,HABILITADO,142,INSTITUTO GESELLIANO (C.I.P.A.G.),D,FCO. VIDIELA,2372,,,,,LA BLANQUEADA,2400 94 24,,0.0,0.0,0.0,0.0,0.0,0.0,0.0,,,,,,,,,,,FCO. VIDIELA 2372,-34.81077027739095,-56.20286909020739,,1.0
MONTEVIDEO - HABILITADO_143,MONTEVIDEO,ESTE,HABILITADO,143,INSTITUTO ARNOLD GESELL,M,RAFAEL PEREZ,1961,,,,,BUCEO,2506 70 63,,0.0,0.0,0.0,0.0,0.0,0.0,0.0,,,,,,,,,,,RAFAEL PEREZ 1961,-34.88533078245479,-56.130845867975935,,1.0
MONTEVIDEO - HABILITADO_144,MONTEVIDEO,ESTE,HABILITADO,144,SAGRADO CORAZON DE JESUS,D,CAPITAN VILLADEMOROS,2593,,,,,MAROÑAS,2506 63 44 / 2508 33 61,TELÉFONO 2 es INICIAL,0.0,0.0,0.0,0.0,0.0,0.0,0.0,,,,,,,,,,,CAPITAN VILLADEMOROS 2593,-34.86515445115662,-56.130351139252745,,1.0
MONTEVIDEO - HABILITADO_146,MONTEVIDEO,ESTE,HABILITADO,146,FEDERICO GARCIA LORCA,C,ENRIQUE ESTRAZULAS,1481,PILCOMAYO,5088,,,MALVIN,2613 32 09 / 2613 58 29,,0.0,0.0,0.0,0.0,0.0,0.0,0.0,,,,,,,,,,,ENRIQUE ESTRAZULAS 1481,-34.894186655827546,-56.098258781587006,,1.0
MONTEVIDEO - HABILITADO_147,MONTEVIDEO,ESTE,HABILITADO,147,COLEGIO DEL SUR,D,VERDI,4431,COLOMBES, 1338 / 1340,,,BUCEO,2619 11 60 / 2613 51 49(*),DIRECCIÓN 1 es además JARDÍN DEL SUR (*),0.0,0.0,0.0,0.0,0.0,0.0,0.0,,,,,,,,,,,VERDI 4431,-34.89463853102418,-56.1169798624963,,1.0
MONTEVIDEO - HABILITADO_148,MONTEVIDEO,OESTE,HABILITADO,148,CEN. ED. ADVENTISTA (C.E.A.),D,SANTA LUCIA,4420,,,,,BELVEDERE,2307 29 07,,0.0,0.0,0.0,0.0,0.0,0.0,0.0,,,,,,,,,,,SANTA LUCIA 4420,-34.85203437004334,-56.2252351529082,,1.0
MONTEVIDEO - HABILITADO_152,MONTEVIDEO,CENTRO,HABILITADO,152,LA MERCED,T,Dr. JUAN JOSE DE AMEZAGA,2018,,,,,VILLA MUÑOZ,2203 48 65,,0.0,0.0,0.0,0.0,0.0,0.0,0.0,,,,,,,,,,,Dr. JUAN JOSE DE AMEZAGA 2018,-34.885242373253874,-56.17454210474291,,1.0
MONTEVIDEO - HABILITADO_154,MONTEVIDEO,ESTE,HABILITADO,154,PUNTA CARRETAS LTDA.,D,GARCIA CORTINAS,2432,,,,,PUNTA CARRETAS,2711 97 31,,0.0,0.0,0.0,0.0,0.0,0.0,0.0,,,,,,,,,,,GARCIA CORTINAS 2432,-34.9247192504221,-56.159332267998046,,1.0
MONTEVIDEO - HABILITADO_155,MONTEVIDEO,OESTE,HABILITADO,155,EMILIO C. TACCONI,D,Cno. EDISON,4808,,,,,PEÑAROL,2358 29 52,,0.0,0.0,0.0,0.0,0.0,0.0,0.0,,,,,,,,,,,Cno. EDISON 4808,-34.825883131533026,-56.20930114145272,,1.0
MONTEVIDEO - HABILITADO_157,MONTEVIDEO,CENTRO,HABILITADO,157,ESCUELA DEL PARQUE,D,Av. Dr. FRANCISCO SOCA,1386,,,,,PARQUE BATLLE,2707 94 54,,0.0,0.0,0.0,0.0,0.0,0.0,0.0,,,,,,,,,,,Av. Dr. FRANCISCO SOCA 1386,-34.904061156160864,-56.15553745577534,,1.0
MONTEVIDEO - HABILITADO_159,MONTEVIDEO,OESTE,HABILITADO,159,ERIK ERIKSON,T,Av. MILLAN,3058,Av. MILLAN,3131 (*),Av. MILLAN,3133,PRADO,2201 08 81 / 2203 27 35(*),,0.0,0.0,0.0,0.0,0.0,0.0,0.0,,,,,,,,,,,Av. MILLAN 3058,-34.870317484688144,-56.19080040514723,,1.0
MONTEVIDEO - HABILITADO_160,MONTEVIDEO,OESTE,HABILITADO,160,CHRISTIAN ANDERSEN,D,Av. MILLAN,4392,,,,,PRADO,2355 09 28,,0.0,0.0,0.0,0.0,0.0,0.0,0.0,,,,,,,,,,,Av. MILLAN 4392,-34.844066459321056,-56.2053637397953,,1.0
MONTEVIDEO - HABILITADO_163,MONTEVIDEO,ESTE,HABILITADO,163,URUGUAYAN AMERICAN SCHOOL,D,Av. Dra. SALDUN DE RODRÍGUEZ,2375,,,,,CARRASCO,2600 76 81,,0.0,0.0,0.0,0.0,0.0,0.0,0.0,,,,,,,,,,,Av. Dra. SALDUN DE RODRÍGUEZ 2375,-34.873881342774055,-56.07722790778968,,1.0
MONTEVIDEO - HABILITADO_164,MONTEVIDEO,ESTE,HABILITADO,164,HORACIO QUIROGA,T,Av. ESTANISLAO LOPEZ,4806,HIPOLITO IRIGOYEN,1642,,,BUCEO,2619 11 59,DIRECCIÓN 2 es además JARDÍN COLORES,0.0,0.0,0.0,0.0,0.0,0.0,0.0,,,,,,,,,,,Av. ESTANISLAO LOPEZ 4806,-34.88830968828864,-56.105128798635995,,1.0
MONTEVIDEO - HABILITADO_167,MONTEVIDEO,CENTRO,HABILITADO,167,ESCUELA WARA,M,DURAZNO ,1480,,,,,BARRIO SUR,2410 95 75,,0.0,0.0,0.0,0.0,0.0,0.0,0.0,,,,,,,,,,,DURAZNO  1480,-34.9101137785715,-56.1833877927982,,1.0
MONTEVIDEO - HABILITADO_169,MONTEVIDEO,CENTRO,HABILITADO,169,FORWARD,T,JOAQUIN REQUENA,1627,,,,,CORDON,2402 37 82,,0.0,0.0,0.0,0.0,0.0,0.0,0.0,,,,,,,,,,,JOAQUIN REQUENA 1627,-34.89899108439309,-56.17022209291605,,1.0
MONTEVIDEO - HABILITADO_170,MONTEVIDEO,OESTE,HABILITADO,170,SONRISITAS,T,POLONIA ,3953,,,,,CERRO,094 015 722,,0.0,0.0,0.0,0.0,0.0,0.0,0.0,,,,,,,,,,,POLONIA  3953,-34.88117311807403,-56.25667786898012,,1.0
MONTEVIDEO - HABILITADO_171,MONTEVIDEO,ESTE,HABILITADO,171,THE ANGLO SCHOOL,D,Av. Dra. SALDUN DE RODRÍGUEZ,2195,,,,,CARRASCO NORTE,2600 64 52  Int. 102,,0.0,0.0,0.0,0.0,0.0,0.0,0.0,,,,,,,,,,,Av. Dra. SALDUN DE RODRÍGUEZ 2195,-34.877725820324635,-56.079514349768324,,1.0
MONTEVIDEO - HABILITADO_172,MONTEVIDEO,OESTE,HABILITADO,172,DE LOS MOLINOS,D,MOLINOS DE RAFFO,796,AV. MILLÁN,4532,MOLINOS DE RAFFO,780,SAYAGO,2307 87 67 / 2359 39 41,DIRECCIÓN 3 es el Jardín (2308 15 36),0.0,0.0,0.0,0.0,0.0,0.0,0.0,,,,,,,,,,,MOLINOS DE RAFFO 796,-34.842949395436605,-56.209572063469494,,1.0
MONTEVIDEO - HABILITADO_175,MONTEVIDEO,OESTE,HABILITADO,175, BET-EL,D,Cno. CASTRO,307,,,,,PRADO,2307 81 87,,0.0,0.0,0.0,0.0,0.0,0.0,0.0,,,,,,,,,,,Cno. CASTRO 307,-34.8547434403282,-56.21055175336505,,1.0
MONTEVIDEO - HABILITADO_178,MONTEVIDEO,OESTE,HABILITADO,178,OLGA CARROZELLI,D ,Av. LEZICA,6204,,,,,LEZICA,2323 47 11,,0.0,0.0,0.0,0.0,0.0,0.0,0.0,,,,,,,,,,,Av. LEZICA 6204,-34.79987579703703,-56.243761518002096,,1.0
MONTEVIDEO - HABILITADO_179,MONTEVIDEO,CENTRO,HABILITADO,179,SAINT BRENDAN'S SCHOOL, D,Av. Gral. RIVERA,2314,JOAQUÍN NUÑEZ,2774 / 2778(*),JOAQUÍN NUÑEZ,2784(*),CORDON / POCITOS(*),2409 49 39 / 2710 06 03(*),DIRECCIÓN 4: Bv. ARTIGAS 444,0.0,0.0,0.0,0.0,0.0,0.0,0.0,,,,,,,,,,,Av. Gral. RIVERA 2314,-34.90208948955509,-56.165032197633096,,1.0
MONTEVIDEO - HABILITADO_180,MONTEVIDEO,OESTE,HABILITADO,180,ATAHUALPA,D ,CARMELO ,1415,,,,,PRADO,2336 44 54,,0.0,0.0,0.0,0.0,0.0,0.0,0.0,,,,,,,,,,,CARMELO  1415,-34.86254450133377,-56.191281112225276,,1.0
MONTEVIDEO - HABILITADO_181,MONTEVIDEO,ESTE,HABILITADO,181,GUSTAVO ADOLFO BECQUER,D ,Av. Gral. RIVERA,4606,,,,,MALVIN,2619 30 58,,0.0,0.0,0.0,0.0,0.0,0.0,0.0,,,,,,,,,,,Av. Gral. RIVERA 4606,-34.891616861318674,-56.11186859234771,,1.0
MONTEVIDEO - HABILITADO_182,MONTEVIDEO,ESTE,HABILITADO,182,REINA REYES,D,CAPITAN LACOSTA,4138,,,,,,2227 20 21,,0.0,0.0,0.0,0.0,0.0,0.0,0.0,,,,,,,,,,,CAPITAN LACOSTA 4138,-34.811199386309646,-56.139020032171494,,1.0
MONTEVIDEO - HABILITADO_185,MONTEVIDEO,ESTE,HABILITADO,185,COLEGIO Y LICEO FRANCES,D,BENIGNO PAIVA,1160,,,,,BUCEO,2628 55 44,,0.0,0.0,0.0,0.0,0.0,0.0,0.0,,,,,,,,,,,BENIGNO PAIVA 1160,-34.90387717859668,-56.12937380851705,,1.0
MONTEVIDEO - HABILITADO_188,MONTEVIDEO,CENTRO,HABILITADO,188,PAULO FREIRE,D,Av. ITALIA,3022,JUAN SPIKERMAN ,2068(*),,,LA BLANQUEADA,2480 08 99 / 2481 09 37(*),DIRECCIÓN 2 es el Jardín(*),0.0,0.0,0.0,0.0,0.0,0.0,0.0,,,,,,,,,,,Av. ITALIA 3022,-34.88957920212812,-56.14889559500602,,1.0
MONTEVIDEO - HABILITADO_189,MONTEVIDEO,ESTE,HABILITADO,189,WOODLANDS SCHOOL,D,SAN CARLOS DE BOLIVAR,S/N,,,,,CARRASCO,2601 46 02 / 2601 88 29,Otros teléfonos: 2601 88 99 / 2604 27 14,0.0,0.0,0.0,0.0,0.0,0.0,0.0,,,,,,,,,,,SAN CARLOS DE BOLIVAR S/N,-34.88884011869138,-56.07680950814521,,1.0
MONTEVIDEO - HABILITADO_190,MONTEVIDEO,CENTRO,HABILITADO,190,THE ANGLO SCHOOL,D,SAN JOSE,1426,JAVIER BARRIOS AMORÍN,1275,,,CORDON,2902 37 73,,0.0,0.0,0.0,0.0,0.0,0.0,0.0,,,,,,,,,,,SAN JOSE 1426,-34.90647017356622,-56.18490550360649,,1.0
MONTEVIDEO - HABILITADO_193,MONTEVIDEO,OESTE,HABILITADO,193,VAN GOGH,D,CARLOS MARIA RAMIREZ,140,BELVEDERE,4376(*),,,BELVEDERE,2307 82 54 / 2308 65 93(*),DIRECCIÓN 2 es además JARDÍN PILLÍN(*),0.0,0.0,0.0,0.0,0.0,0.0,0.0,,,,,,,,,,,CARLOS MARIA RAMIREZ 140,-34.85614474494641,-56.224016819122056,,1.0
MONTEVIDEO - HABILITADO_195,MONTEVIDEO,ESTE,HABILITADO,195,ALEMAN,D,Av. Dr. FRANCISCO SOCA,1356,GABRIEL PEREIRA,2815 / 2827,,,POCITOS,2708 43 81,,0.0,0.0,0.0,0.0,0.0,0.0,0.0,,,,,,,,,,,Av. Dr. FRANCISCO SOCA 1356,-34.904776569424556,-56.155236898128074,,1.0
MONTEVIDEO - HABILITADO_197,MONTEVIDEO,ESTE,HABILITADO,197,SCUOLA ITALIANA,T,Gral. FRENCH,2180,,,,,CARRASCO,2600 15 27  Int. 119,,0.0,0.0,0.0,0.0,0.0,0.0,0.0,,,,,,,,,,,Gral. FRENCH 2180,-34.871633807265326,-56.04801986680432,,1.0
MONTEVIDEO - HABILITADO_199,MONTEVIDEO,OESTE,HABILITADO,199,COLEGIO ED. GANDHI,D,JOAQUÍN SUAREZ,2868,,,,,BELLA VISTA,2200 31 19,,0.0,0.0,0.0,0.0,0.0,0.0,0.0,,,,,,,,,,,JOAQUÍN SUAREZ 2868,-34.87738625576669,-56.19652548619067,,1.0
MONTEVIDEO - HABILITADO_200,MONTEVIDEO,CENTRO,HABILITADO,200,LIFE SCHOOL,D,CANELONES,1069,,,,,CENTRO,2900 71 78,,0.0,0.0,0.0,0.0,0.0,0.0,0.0,,,,,,,,,,,CANELONES 1069,-34.908772217258154,-56.192758644234175,,1.0
MONTEVIDEO - HABILITADO_201,MONTEVIDEO,ESTE,HABILITADO,201,EDU SCHOOL,D,FCO. SOLANO ANTUÑA,2618,,,,,PUNTA CARRETAS,2710 25 72,,0.0,0.0,0.0,0.0,0.0,0.0,0.0,,,,,,,,,,,FCO. SOLANO ANTUÑA 2618,-34.916588559194906,-56.15710028662679,,1.0
MONTEVIDEO - HABILITADO_202,MONTEVIDEO,CENTRO,HABILITADO,202,GIRATIERRA,D,DAMASO ANTONIO LARRAÑAGA,3246,,,,,PARQUE BATLLE,2481 89 92,,0.0,0.0,0.0,0.0,0.0,0.0,0.0,,,,,,,,,,,DAMASO ANTONIO LARRAÑAGA 3246,-34.87932942656229,-56.15209179875769,,1.0
MONTEVIDEO - HABILITADO_203,MONTEVIDEO,ESTE,HABILITADO,203,STELLA MARIS,D,MAXIMO TAJES,7359,HERMANO PATRICK KELLY,2269,VICTOR SUDRIERS,7346,CARRASCO,2600 07 02,,0.0,0.0,0.0,0.0,0.0,0.0,0.0,,,,,,,,,,,MAXIMO TAJES 7359,-34.87480373429009,-56.045710048456435,,1.0
MONTEVIDEO - HABILITADO_205,MONTEVIDEO,OESTE,HABILITADO,205,JUAN MANUEL BLANES,D,Av. MILLAN,4024,LUIS A. de HERRERA,4611(*),,,PRADO,2336 18 38 / 2337 52 72(*),,0.0,0.0,0.0,0.0,0.0,0.0,0.0,,,,,,,,,,,Av. MILLAN 4024,-34.85280237093001,-56.197191289690174,,1.0
MONTEVIDEO - HABILITADO_206,MONTEVIDEO,ESTE,HABILITADO,206,SOL DE JULIO,D,ABIPONES,5827,,,,,BELLA  ITALIA,2514 07 90,,0.0,0.0,0.0,0.0,0.0,0.0,0.0,,,,,,,,,,,ABIPONES 5827,-34.837576332871365,-56.12325802716986,,1.0
MONTEVIDEO - HABILITADO_207,MONTEVIDEO,OESTE,HABILITADO,207,JUANA DE AMERICA,D,GRITO DE ASENCIO,1136,,,,,BELLA VISTA,2208 48 50,,0.0,0.0,0.0,0.0,0.0,0.0,0.0,,,,,,,,,,,GRITO DE ASENCIO 1136,-34.875161871664154,-56.19770093686182,,1.0
MONTEVIDEO - HABILITADO_208,MONTEVIDEO,CENTRO,HABILITADO,208,PABLO ANDION,D,LOCARNO,3629,,,,,J. DEL HIPODROMO,2511 77 86,,0.0,0.0,0.0,0.0,0.0,0.0,0.0,,,,,,,,,,,LOCARNO 3629,-34.83595491153367,-56.13485465388859,,1.0
MONTEVIDEO - HABILITADO_209,MONTEVIDEO,OESTE,HABILITADO,209,PRADO SCHOOL,D,19 DE ABRIL,1106,,,,,PRADO,2336 74 88,,0.0,0.0,0.0,0.0,0.0,0.0,0.0,,,,,,,,,,,19 DE ABRIL 1106,-34.86278321320658,-56.20107902361334,,1.0
MONTEVIDEO - HABILITADO_210,MONTEVIDEO,CENTRO,HABILITADO,210,URUGUAY PIRI,D,VILARDEBO,1209,GRAL. FRAGA ,2195,,,REDUCTO,2203 43 39,DIRECCIÓN1 es además JARDÍN CAPERUCITA ROJA(*),0.0,0.0,0.0,0.0,0.0,0.0,0.0,,,,,,,,,,,VILARDEBO 1209,-34.877609973128344,-56.192917462693266,,1.0
MONTEVIDEO - HABILITADO_211,MONTEVIDEO,CENTRO,HABILITADO,211,INTEGRAL EDUC-ARTE,T,Av. JOSE BELLONI,6210,,,,,MANGA,2227 51 21,,0.0,0.0,0.0,0.0,0.0,0.0,0.0,,,,,,,,,,,Av. JOSE BELLONI 6210,-34.7857065427708,-56.13571066186858,,1.0
MONTEVIDEO - HABILITADO_212,MONTEVIDEO,ESTE,HABILITADO,212,EL CANTARO FRESCO,T,GRATHIBAUT,1773,,,,,BUCEO,2481 58 51,,0.0,0.0,0.0,0.0,0.0,0.0,0.0,,,,,,,,,,,GRATHIBAUT 1773,-34.89236991409136,-56.133384276005934,,1.0
MONTEVIDEO - HABILITADO_213,MONTEVIDEO,CENTRO,HABILITADO,213,NUEVA GENERACIÓN,D,AV. J. BELLONI,3231,,,,,MAROÑAS,2513 91 08,,0.0,0.0,0.0,0.0,0.0,0.0,0.0,,,,,,,,,,,AV. J. BELLONI 3231,-34.84794325974194,-56.13410791353473,,1.0
MONTEVIDEO - HABILITADO_214,MONTEVIDEO,ESTE,HABILITADO,214,MAHANAIM,D,AV. ITALIA,4188,,,,,MALVIN,2614 29 01,,0.0,0.0,0.0,0.0,0.0,0.0,0.0,,,,,,,,,,,AV. ITALIA 4188,-34.887421573058845,-56.117027096273844,,1.0
MONTEVIDEO - HABILITADO_215,MONTEVIDEO,ESTE,HABILITADO,215,IMAGINATE,D,JUAN BAUTISTA ALBERDI,5890,,,,,CARRASCO,2600 27 91,,0.0,0.0,0.0,0.0,0.0,0.0,0.0,,,,,,,,,,,JUAN BAUTISTA ALBERDI 5890,-34.88528282287574,-56.08083023626704,,1.0
MONTEVIDEO - HABILITADO_217,MONTEVIDEO,CENTRO,HABILITADO,217,ACJ - ASOC. CRISTIANA DE JOVENES,,EDUARDO ACEVEDO,1629,COLONIA,1870(*),,,CORDÓN,2402 38 30 / 2400 11 16(*),,0.0,0.0,0.0,0.0,0.0,0.0,0.0,,,,,,,,,,,EDUARDO ACEVEDO 1629,-34.89992586551353,-56.17759290435617,,1.0
MONTEVIDEO - HABILITADO_218,MONTEVIDEO,ESTE,HABILITADO,218,MONTEVIDEO COLLEGE,D,26 DE MARZO,1130,,,,,POCITOS,2707 48 82,,0.0,0.0,0.0,0.0,0.0,0.0,0.0,,,,,,,,,,,26 DE MARZO 1130,-34.910451504750135,-56.15011935414156,,1.0
MONTEVIDEO - HABILITADO_219,MONTEVIDEO,OESTE,HABILITADO,219,INSTITUTO DE LOS JOVENES (IDEJO),D,AV. 19 DE ABRIL,3333,,,,,PRADO,2309 35 53,,0.0,0.0,0.0,0.0,0.0,0.0,0.0,,,,,,,,,,,AV. 19 DE ABRIL 3333,-34.86839167529855,-56.20460626469605,,1.0
MONTEVIDEO - HABILITADO_220,MONTEVIDEO,CENTRO,HABILITADO,220,NUEVA ESPERANZA,D,IRURETA GOYENA,3359,,,,,VILLA ESPAÑOLA,2506 96 01 ,,0.0,0.0,0.0,0.0,0.0,0.0,0.0,,,,,,,,,,,IRURETA GOYENA 3359,-34.85976868485223,-56.14814602472858,,1.0
MONTEVIDEO - HABILITADO_221,MONTEVIDEO,CENTRO,HABILITADO,221,JOSE E. RODO,D,Cno. MALDONADO,5474,,,,,FLOR DE MAROÑAS,2513 60 52,,0.0,0.0,0.0,0.0,0.0,0.0,0.0,,,,,,,,,,,Cno. MALDONADO 5474,-34.84646635524423,-56.12586933812382,,1.0
MONTEVIDEO - HABILITADO_222,MONTEVIDEO,ESTE,HABILITADO,222,ALFA Y OMEGA,D,Av. JOSE BELLONI,5894,,,,,PIEDRAS BLANCAS,2227 93 03,,0.0,0.0,0.0,0.0,0.0,0.0,0.0,,,,,,,,,,,Av. JOSE BELLONI 5894,-34.79264000445236,-56.13592884782548,,1.0
MONTEVIDEO - HABILITADO_223,MONTEVIDEO,ESTE,HABILITADO,223,RAYUELA,D,AV. ITALIA,3185,,,,,LA BLANQUEADA,2487 13 11,,0.0,0.0,0.0,0.0,0.0,0.0,0.0,,,,,,,,,,,AV. ITALIA 3185,-34.887949933400755,-56.14615247463434,,1.0
MONTEVIDEO - HABILITADO_224,MONTEVIDEO,CENTRO,HABILITADO,224,LOS ROSALES,D,CAPITAN TULA,5150,,,,,CASAVALLE,2222 62 03,,0.0,0.0,0.0,0.0,0.0,0.0,0.0,,,,,,,,,,,CAPITAN TULA 5150,-34.90012438195732,-56.14665155733952,,1.0
MONTEVIDEO - HABILITADO_225,MONTEVIDEO,CENTRO,HABILITADO,225,DELMIRA AGUSTINI,D,BR. ARTIGAS,3062,,,,,BRAZO ORIENTAL,2481 17 25,,0.0,0.0,0.0,0.0,0.0,0.0,0.0,,,,,,,,,,,BR. ARTIGAS 3062,-34.870593208060505,-56.167370478044795,,1.0
MONTEVIDEO - HABILITADO_226,MONTEVIDEO,OESTE,HABILITADO,226,ROSA MÍSTICA,D,PEDRO DE VALDIVIA,5315,AVDA. GARZÓN,1499,,,COLÓN,2320 70 47,,0.0,0.0,0.0,0.0,0.0,0.0,0.0,,,,,,,,,,,PEDRO DE VALDIVIA 5315,-34.81787630046634,-56.22081764277566,,1.0
MONTEVIDEO - HABILITADO_227,MONTEVIDEO,OESTE,HABILITADO,227,KALA- BETHUEL,,FRAY LUIS DE LEÓN,2458,,,,,MARACANÁ,2318 01 29,,0.0,0.0,0.0,0.0,0.0,0.0,0.0,,,,,,,,,,,FRAY LUIS DE LEÓN 2458,-34.848388961998346,-56.273592604571526,,1.0
MONTEVIDEO - HABILITADO_228,MONTEVIDEO,ESTE,HABILITADO,228,EDUVI,V,RUTA 8 KM 13200,6902,,,,,PUNTA DE RIELES,2513 48 13,,0.0,0.0,0.0,0.0,0.0,0.0,0.0,,,,,,,,,,,RUTA 8 KM 13200 6902,-34.8299179,-56.11754884797109,,3.0
MONTEVIDEO - HABILITADO_229,MONTEVIDEO,OESTE,HABILITADO,229,LAJAU,,GRAL PALLEJAS,2590,,,,,ARROYO SECO,2203 39 16,,0.0,0.0,0.0,0.0,0.0,0.0,0.0,,,,,,,,,,,GRAL PALLEJAS 2590,-34.88074153258514,-56.19422675578634,,1.0
MONTEVIDEO - HABILITADO_230,MONTEVIDEO,CENTRO,HABILITADO,230,LIBER FALCO,D,BVAR. ARTIGAS,2310,,,,,LA BLANQUEADA,2481 69 21,,0.0,0.0,0.0,0.0,0.0,0.0,0.0,,,,,,,,,,,BVAR. ARTIGAS 2310,-34.884733546253116,-56.16585244740092,,1.0
MONTEVIDEO - HABILITADO_231,MONTEVIDEO,ESTE,HABILITADO,231,RUDOLF STEINER,D,AV. BOLIVIA,242,,,,,CARRASCO,2600 83 23,,0.0,0.0,0.0,0.0,0.0,0.0,0.0,,,,,,,,,,,AV. BOLIVIA 242,-34.89481360443397,-56.060866454414196,,1.0
MONTEVIDEO - HABILITADO_232,MONTEVIDEO,CENTRO,HABILITADO,232,IMPULSO,C,AV. SAN MARTÍN,4701,,,,,CERRITO,2216 00 50,,0.0,0.0,0.0,0.0,0.0,0.0,0.0,,,,,,,,,,,AV. SAN MARTÍN 4701,-34.89167178283472,-56.07287537989884,,1.0
MONTEVIDEO - HABILITADO_233,MONTEVIDEO,ESTE,HABILITADO,233,SANTA MARGARITA,,JOAQUIN DE LA SAGRA,,,,,,,092 641 190,,,,,,,,,,,,,,,,,,,JOAQUIN DE LA SAGRA,-34.87041498261264,-56.1018504830946,,1.0
MONTEVIDEO - HABILITADO_234,MONTEVIDEO,OESTE,HABILITADO,234,JUAN BAUTISTA CROSA,,AV. GARZON ,1835,,,,,COLON,2323 34 68,,,,,,,,,,,,,,,,,,,AV. GARZON  1835,-34.809034942561475,-56.22148732034258,,1.0
MONTEVIDEO - HABILITADO_235,MONTEVIDEO,CENTRO,HABILITADO,235,CLOVER SCHOOL,,JUAN PAULLIER,1778,,,,,TRES CRUCES,2408 66 77,,,,,,,,,,,,,,,,,,,JUAN PAULLIER 1778,-34.895476874256445,-56.169865296896255,,1.0
,MONTEVIDEO,CENTRO,HABILITADO,236,CONECTADOS APRENDEMOS JUNTOS,,NUEVA TROYA,3589,,,,,CERRITO DE LA VICTORIA,22114376,,,,,,,,,,,,,,,,,,,NUEVA TROYA 3589,-34.85940477993946,-56.17004519507666,,1.0
,MONTEVIDEO,ESTE,HABILITADO,237,D’AMORE MONTESSORI SCHOOL,,AVDA. GRAL. RIVERA,4511,,,,,MALVIN,099 184 380,,,,,,,,,,,,,,,,,,,AVDA. GRAL. RIVERA 4511,-34.89292066006813,-56.11547932588053,,1.0
,MONTEVIDEO,CENTRO,HABILITADO,238,ORANGE SCHOOL,,GRAL. URQUIZA,2516,,,,,TRES CRUCES,2482 80 52,,,,,,,,,,,,,,,,,,,GRAL. URQUIZA 2516,-34.89262341762871,-56.16414992216856,,1.0
MONTEVIDEO - AUTORIZADO_007,MONTEVIDEO,ESTE,AUTORIZADO,7,LOS PILARES,D,PRUDENCIO DE PENA,2525,,,,,PARQUE BATLLE,2708 21 18,,0.0,0.0,0.0,0.0,0.0,0.0,0.0,,,,,,,,,,,PRUDENCIO DE PENA 2525,-34.89758475411721,-56.160513373122356,,1.0
MONTEVIDEO - AUTORIZADO_009,MONTEVIDEO,ESTE,AUTORIZADO,9,SAINT PATRICK'S COLLEGE,D,Cno. GIGANTE,2735,,,,,CARRASCO NORTE,2601 34 74,,0.0,0.0,0.0,0.0,0.0,0.0,0.0,,,,,,,,,,,Cno. GIGANTE 2735,-34.86868324308301,-56.06750109754911,,1.0
MONTEVIDEO - AUTORIZADO_013,MONTEVIDEO,ESTE,AUTORIZADO,13,IVY THOMAS MEMORIAL SCHOOL,T,ROQUE GRASERAS,775,,,,,POCITOS,2710 23 96,,0.0,0.0,0.0,0.0,0.0,0.0,0.0,,,,,,,,,,,ROQUE GRASERAS 775,-34.917242749394624,-56.151462974466185,,1.0
MONTEVIDEO - AUTORIZADO_017,MONTEVIDEO,ESTE,AUTORIZADO,17,SAINT ANDREW'S SCHOOL,D,LUIS B. CAVIA,2791,,,,,POCITOS,2709 49 51,,0.0,0.0,0.0,0.0,0.0,0.0,0.0,,,,,,,,,,,LUIS B. CAVIA 2791,-34.909893136213164,-56.15503014656007,,1.0
MONTEVIDEO - AUTORIZADO_019,MONTEVIDEO,ESTE,AUTORIZADO,19,THE BRITISH SCHOOLS,D,MAXIMO TAJES,6421,,,,,CARRASCO,2600 34 21,,0.0,0.0,0.0,0.0,0.0,0.0,0.0,,,,,,,,,,,MAXIMO TAJES 6421,-34.876926536418004,-56.06989421479042,,1.0
MONTEVIDEO - AUTORIZADO_020,MONTEVIDEO,ESTE,AUTORIZADO,20,MONTE VI,D,LUIS B. CAVIA,2827,,,,,POCITOS,27090488,,,,,,,,,,,,,,,,,,,LUIS B. CAVIA 2827,-34.91082138695084,-56.15495473789262,,1.0
MONTEVIDEO - AUTORIZADO_022,MONTEVIDEO,ESTE,AUTORIZADO,22,INSTITUTO DE ENSEÑANZA MARANATHA,D,Cno.MALDONADO,6494,,,,,PUNTA DE RIELES,2514 56 82,,0.0,0.0,0.0,0.0,0.0,0.0,0.0,,,,,,,,,,,Cno.MALDONADO 6494,-34.82794259823357,-56.10814987115164,,1.0
MONTEVIDEO - AUTORIZADO_023,MONTEVIDEO,OESTE,AUTORIZADO,23,CEN. DE ED. NATURAL E INTEGRAL (C.E.N.I.),D,Av. Dr. LUIS A. de HERRERA,4092,,,,,BRAZO ORIENTAL,2208 24 28,,0.0,0.0,0.0,0.0,0.0,0.0,0.0,,,,,,,,,,,Av. Dr. LUIS A. de HERRERA 4092,-34.861200529815285,-56.185817545362575,,1.0
MONTEVIDEO - AUTORIZADO_032,MONTEVIDEO,ESTE,AUTORIZADO,32,SAINT GEORGE'S SCHOOL,D,DONICETTI,1353,,,,,BUCEO,2613 95 20,,0.0,0.0,0.0,0.0,0.0,0.0,0.0,,,,,,,,,,,DONICETTI 1353,-34.89829859621483,-56.12164309403379,,1.0
MONTEVIDEO - JARDIN_002,MONTEVIDEO,NINGUNA,JARDIN,2,INSTITUTO GESELLIANO,,Av. GARIBALDI,2235,,,,,,2203 41 01,,0.0,0.0,0.0,0.0,0.0,0.0,0.0,,,,,,,,,,,Av. GARIBALDI 2235,-34.88056873873676,-56.17090189409721,,1.0
MONTEVIDEO - JARDIN_007,MONTEVIDEO,NINGUNA,JARDIN,7,EL CASTILLITO,,Av. Dr. LUIS A. de HERRERA,2453,,,,,,2481 40 65,,0.0,0.0,0.0,0.0,0.0,0.0,0.0,,,,,,,,,,,Av. Dr. LUIS A. de HERRERA 2453,-34.883763139636564,-56.151382467094294,,1.0
MONTEVIDEO - JARDIN_013,MONTEVIDEO,NINGUNA,JARDIN,13,ARNOLD GESELL,,COMERCIO,1954/58,COMERCIO,1971(*),Av. ITALIA,3668,,2208 37 00 / 2506 67 70(*),DIRECCIÓN 3 es el MATERNAL (2506 23 50),0.0,0.0,0.0,0.0,0.0,0.0,0.0,,,,,,,,,,,COMERCIO 1954/58,-34.87995740618274,-56.1385469339993,,1.0
MONTEVIDEO - JARDIN_024,MONTEVIDEO,NINGUNA,JARDIN,24,LA CIGÜEÑA,,MAIPU,1761,,,,,,2481 41 81,,0.0,0.0,0.0,0.0,0.0,0.0,0.0,,,,,,,,,,,MAIPU 1761,-34.89510328768361,-56.145313777445786,,1.0
MONTEVIDEO - JARDIN_026,MONTEVIDEO,NINGUNA,JARDIN,26,INSTITUTO DE FORMACION PREESCOLAR MAFALDA,,ARIOSTO,235,,,,,,2710 39 86,,0.0,0.0,0.0,0.0,0.0,0.0,0.0,,,,,,,,,,,ARIOSTO 235,-34.92540753999739,-56.15912456401402,,1.0
MONTEVIDEO - JARDIN_033,MONTEVIDEO,NINGUNA,JARDIN,33,BANCO REPUBLICA,,CHUCARRO,1330,,,,,,2709 27 19,,0.0,0.0,0.0,0.0,0.0,0.0,0.0,,,,,,,,,,,CHUCARRO 1330,-34.90898211732737,-56.14433247633168,,1.0
MONTEVIDEO - JARDIN_050,MONTEVIDEO,NINGUNA,JARDIN,50,GUARDERÍA Y JARDÍN AEBU (Bancarios),,JUAN CARLOS GOMEZ,1272,JUAN CARLOS GOMEZ,1265,,,,2915 58 18,,0.0,0.0,0.0,0.0,0.0,0.0,0.0,,,,,,,,,,,JUAN CARLOS GOMEZ 1272,-34.90820666811596,-56.202086662912855,,1.0
MONTEVIDEO - JARDIN_056,MONTEVIDEO,NINGUNA,JARDIN,56,LOS CANGURITOS,,Cno. CARRASCO,5385,,,,,,2522 18 65,,0.0,0.0,0.0,0.0,0.0,0.0,0.0,,,,,,,,,,,Cno. CARRASCO 5385,-34.87166700000114,-56.0990269999999,,1.0
MONTEVIDEO - JARDIN_062,MONTEVIDEO,NINGUNA,JARDIN,62,JEAN PIAGET,,LIBERTAD,2795,,,,,,2709 13 06,,0.0,0.0,0.0,0.0,0.0,0.0,0.0,,,,,,,,,,,LIBERTAD 2795,-34.9080653681831,-56.153233031140516,,1.0
MONTEVIDEO - JARDIN_082,MONTEVIDEO,NINGUNA,JARDIN,82,FEDERICO FROEBEL,,Edil HUGO PRATTO,2175,,,,,,2409 34 89,,0.0,0.0,0.0,0.0,0.0,0.0,0.0,,,,,,,,,,,Edil HUGO PRATTO 2175,-34.909136626480446,-56.167736815286275,,1.0
MONTEVIDEO - JARDIN_086,MONTEVIDEO,NINGUNA,JARDIN,86,GRILLITOS,,Av. LEGRAND,5098,,,,,,2619 46 75,,0.0,0.0,0.0,0.0,0.0,0.0,0.0,,,,,,,,,,,Av. LEGRAND 5098,-34.89026147729347,-56.098588943245794,,1.0
MONTEVIDEO - JARDIN_096,MONTEVIDEO,NINGUNA,JARDIN,96,EL RATON AZUL,,FRANCISCO BAUZA,3756,,,,,,2628 15 58,,0.0,0.0,0.0,0.0,0.0,0.0,0.0,,,,,,,,,,,FRANCISCO BAUZA 3756,-34.8984981704961,-56.13322709715665,,1.0
MONTEVIDEO - JARDIN_104,MONTEVIDEO,NINGUNA,JARDIN,104,JESUS,,Bv. JOSE BATLLE Y ORDOÑEZ,4820,,,,,,2216 03 44,,0.0,0.0,0.0,0.0,0.0,0.0,0.0,,,,,,,,,,,Bv. JOSE BATLLE Y ORDOÑEZ 4820,-34.848710444903965,-56.18701233913109,,1.0
MONTEVIDEO - JARDIN_106,MONTEVIDEO,NINGUNA,JARDIN,106,PIO PIO,,HIPOLITO MORDEILLE,4140,,,,,,2508 61 45,,0.0,0.0,0.0,0.0,0.0,0.0,0.0,,,,,,,,,,,HIPOLITO MORDEILLE 4140,-34.86085325680547,-56.14990719849511,,1.0
MONTEVIDEO - JARDIN_119,MONTEVIDEO,NINGUNA,JARDIN,119,PAULO FREIRE,,SPIKERMAN ,2085,,,,,,2480 08 99,,0.0,0.0,0.0,0.0,0.0,0.0,0.0,,,,,,,,,,,SPIKERMAN  2085,-34.890028825068725,-56.14892455517899,,1.0
MONTEVIDEO - JARDIN_120,MONTEVIDEO,NINGUNA,JARDIN,120,NUBECITA VIAJERA,,Av. ITALIA,6935,,,,,,2601 38 35,,0.0,0.0,0.0,0.0,0.0,0.0,0.0,,,,,,,,,,,Av. ITALIA 6935,-34.87700687287276,-56.0586229875215,,1.0
MONTEVIDEO - JARDIN_121,MONTEVIDEO,NINGUNA,JARDIN,121,OUR KIDS,,J. CANNINGS,2569,LIEJA,7068 - 6858 (*),PEDRO FCO. BERRO,1071,,2480 01 84 / 2480 03 34 (*),DIRECCIÓN 3: 2708 03 51,0.0,0.0,0.0,0.0,0.0,0.0,0.0,,,,,,,,,,,J. CANNINGS 2569,-34.895426606972194,-56.16049827642497,,1.0
MONTEVIDEO - JARDIN_124,MONTEVIDEO,NINGUNA,JARDIN,124,CENTRO DE EDUCACION DEL INICIAL C.E.T.P.,,MINAS ,921,,,,,,2411 04 83,,0.0,0.0,0.0,0.0,0.0,0.0,0.0,,,,,,,,,,,MINAS  921,-34.912818107517936,-56.179113028513875,,1.0
MONTEVIDEO - JARDIN_126,MONTEVIDEO,NINGUNA,JARDIN,126,MY LITTLE WORLD,,MARTIN FIERRO,2579,,,,,,2487 73 11,,0.0,0.0,0.0,0.0,0.0,0.0,0.0,,,,,,,,,,,MARTIN FIERRO 2579,-34.88122755654723,-56.163335861242174,,1.0
MONTEVIDEO - ESPECIAL_001,MONTEVIDEO,NINGUNA,ESPECIAL,1,INST. NACIONAL DE CIEGOS Gral. ARTIGAS,,CNO. MALDONADO,5745,,,,,,2514 06 89,,0.0,0.0,0.0,0.0,0.0,0.0,0.0,,,,,,,,,,,CNO. MALDONADO 5745,-34.8413593621536,-56.124171307615164,,1.0
MONTEVIDEO - ESPECIAL_003,MONTEVIDEO,NINGUNA,ESPECIAL,3,FRANKLIN DELANO ROOSVELT,,Av. MILLAN,4205,,,,,,2309 76 00 / 2306 07 20,2308 51 25,0.0,0.0,0.0,0.0,0.0,0.0,0.0,,,,,,,,,,,Av. MILLAN 4205,-34.8476528950472,-56.199787256885394,,1.0
MONTEVIDEO - ESPECIAL_004,MONTEVIDEO,NINGUNA,ESPECIAL,4,ESCUELA HORIZONTE,,Av. AGRACIADA,3591,,,,,,2305 45 95,,0.0,0.0,0.0,0.0,0.0,0.0,0.0,,,,,,,,,,,Av. AGRACIADA 3591,-34.866619177679745,-56.20808002014133,,1.0
MONTEVIDEO - ESPECIAL_005,MONTEVIDEO,NINGUNA,ESPECIAL,5,CEN. EDUCATIVO DE RETARDO MENTAL DEL URU. (C.E.R.M.U.),,Av. MILLAN,2849,,,,,,2209 34 21,,0.0,0.0,0.0,0.0,0.0,0.0,0.0,,,,,,,,,,,Av. MILLAN 2849,-34.87429999863768,-56.18870545158596,,1.0
MONTEVIDEO - ESPECIAL_006,MONTEVIDEO,NINGUNA,ESPECIAL,6,CENTRO PEDAGOGICO TERAPEUTICO (C.P.T.),,LUIS A. DE HERRERA,2482/84,,,,,,2487 99 54,,0.0,0.0,0.0,0.0,0.0,0.0,0.0,,,,,,,,,,,LUIS A. DE HERRERA 2482/84,-34.851159374142924,-56.275071532972156,,1.0
MONTEVIDEO - ESPECIAL_007,MONTEVIDEO,NINGUNA,ESPECIAL,7,INST. PARA DIS. INTELEC. MOTRICES Y EMOCIONALES (I.D.I.M.E.),,MAR DEL PLATA,6924,,,,,,2605 66 32,,0.0,0.0,0.0,0.0,0.0,0.0,0.0,,,,,,,,,,,MAR DEL PLATA 6924,-34.8860249497062,-56.050905261391144,,1.0
MONTEVIDEO - ESPECIAL_008,MONTEVIDEO,NINGUNA,ESPECIAL,8,CENTRO DE EDUCACION INDIVIDUALIZADA (C.E.I.),,Av. AGRACIADA,3272,,,,,,2305 73 96,,0.0,0.0,0.0,0.0,0.0,0.0,0.0,,,,,,,,,,,Av. AGRACIADA 3272,-34.87145958200511,-56.20271090677037,,1.0
MONTEVIDEO - ESPECIAL_011,MONTEVIDEO,NINGUNA,ESPECIAL,11,ESCUELA Y TALLER APRENDIENDO A CRECER (E.Y.TA.C.),,E. LOPEZ ,4759,,,,,,2618 31 30,,0.0,0.0,0.0,0.0,0.0,0.0,0.0,,,,,,,,,,,E. LOPEZ  4759,-34.81918100000112,-56.16661499999994,,1.0
MONTEVIDEO - ESPECIAL_012,MONTEVIDEO,NINGUNA,ESPECIAL,12,CEN. ESPECIALIZADO DIURNO DE ATENC. AL MENOR (C.E.D.A.M.),,GARIBALDI,1929,,,,,,2203 41 47,,0.0,0.0,0.0,0.0,0.0,0.0,0.0,,,,,,,,,,,GARIBALDI 1929,-34.87684306382573,-56.17775317993823,,1.0
MONTEVIDEO - ESPECIAL_015,MONTEVIDEO,NINGUNA,ESPECIAL,15,TALLER TIMBÓ,,CHARRUA,2226,,,,,,2401 16 57,,0.0,0.0,0.0,0.0,0.0,0.0,0.0,,,,,,,,,,,CHARRUA 2226,-34.90591954636318,-56.16682925420017,,1.0
MONTEVIDEO - ESPECIAL_016,MONTEVIDEO,NINGUNA,ESPECIAL,16,CEN. INTEGRAL DE ATENC. A PERSONAS VULNERABLES (C.I.A.PE.V.),,SAINT BOIS,4892,,,,,,2511 48 92,,0.0,0.0,0.0,0.0,0.0,0.0,0.0,,,,,,,,,,,SAINT BOIS 4892,-34.84290402526638,-56.14953366667512,,1.0
MONTEVIDEO - ESPECIAL_017,MONTEVIDEO,NINGUNA,ESPECIAL,17,CENTRO DE INTEGRACION DE DISCAPACITADOS (C.IN.DIS.),,DURAZNO,1369,,,,,,2902 93 01,,0.0,0.0,0.0,0.0,0.0,0.0,0.0,,,,,,,,,,,DURAZNO 1369,-34.91013468540184,-56.18583179965402,,1.0
MONTEVIDEO - ESPECIAL_022,MONTEVIDEO,NINGUNA,ESPECIAL,22,CENTRO DE REEDUCACION ESPECIAL (C.R.E.),,ARAZATÍ,1188,,,,,,2709 29 48,,0.0,0.0,0.0,0.0,0.0,0.0,0.0,,,,,,,,,,,ARAZATÍ 1188,-34.907425237091495,-56.154865628129606,,1.0
MONTEVIDEO - ESPECIAL_023,MONTEVIDEO,NINGUNA,ESPECIAL,23,ESCUELA CLINICA DEL CERRO,,JUAN B. VIACABA,1881,AV. LEZICA,5816 (*),,,,2313 93 61,DIRECCIÓN 2 es ANEXO COLÓN,0.0,0.0,0.0,0.0,0.0,0.0,0.0,,,,,,,,,,,JUAN B. VIACABA 1881,-34.888080205755585,-56.25248022362846,,1.0
MONTEVIDEO - ESPECIAL_024,MONTEVIDEO,NINGUNA,ESPECIAL,24,CENTRO DE ASISTENCIA PSICOPEDAGOGICA (C.A.P.),,BV. ESPAÑA,2515,,,,,,2707 02 19,,0.0,0.0,0.0,0.0,0.0,0.0,0.0,,,,,,,,,,,BV. ESPAÑA 2515,-34.91196200000115,-56.15956499999993,,1.0
MONTEVIDEO - ESPECIAL_026,MONTEVIDEO,NINGUNA,ESPECIAL,26,CENTRO DE ATENCION AL DESARROLLO INTEGRAL (C.A.D.I.),,AV. LIBERTADOR J. A. LAVALLEJA,1971/504,,,,,,2924 91 14,,0.0,0.0,0.0,0.0,0.0,0.0,0.0,,,,,,,,,,,AV. LIBERTADOR J. A. LAVALLEJA 1971/504,-34.90010870723832,-56.1681443605667,,1.0
MONTEVIDEO - ESPECIAL_029,MONTEVIDEO,NINGUNA,ESPECIAL,29,NUESTRO CAMINO APADIM,,ALEJANDRO GALLINAL,1736,,,,,,2619 93 50,,0.0,0.0,0.0,0.0,0.0,0.0,0.0,,,,,,,,,,,ALEJANDRO GALLINAL 1736,-34.88690222600136,-56.09795995738448,,1.0
MONTEVIDEO - ESPECIAL_030,MONTEVIDEO,NINGUNA,ESPECIAL,30,CENTRO DE CAPACITACION SIGLO XXI,,FELIPE CONTUCCI,4227,,,,,,2209 80 74,,0.0,0.0,0.0,0.0,0.0,0.0,0.0,,,,,,,,,,,FELIPE CONTUCCI 4227,-34.85626245082119,-56.18611288272146,,1.0
MONTEVIDEO - ESPECIAL_031,MONTEVIDEO,NINGUNA,ESPECIAL,31,CENTRO MANOS UNIDAS (CE.MA.U.),,DUVINIOSO TERRA,2292,,,,,,2203 35 06,,0.0,0.0,0.0,0.0,0.0,0.0,0.0,,,,,,,,,,,DUVINIOSO TERRA 2292,-34.88431206354827,-56.16746354706566,,1.0
MONTEVIDEO - ESPECIAL_032,MONTEVIDEO,NINGUNA,ESPECIAL,32,CENTRO EDUCATIVO DE ATENCION INTEGRAL (C.E.D.A.I.),,CASTRO,507,,,,,,2307 12 49,,0.0,0.0,0.0,0.0,0.0,0.0,0.0,,,,,,,,,,,CASTRO 507,-34.85213994992404,-56.207266572689456,,1.0
MONTEVIDEO - ESPECIAL_034,MONTEVIDEO,NINGUNA,ESPECIAL,34,LAURENCE LARSEN,,LUIS A. DE HERRERA,3074,,,,,,2486 26 32,,0.0,0.0,0.0,0.0,0.0,0.0,0.0,,,,,,,,,,,LUIS A. DE HERRERA 3074,-34.87301300577116,-56.16072192561436,,1.0
MONTEVIDEO - ESPECIAL_036,MONTEVIDEO,NINGUNA,ESPECIAL,36,COOP. DE TRABAJADORES HABILES E INHABILES (CO.T.HA.IN.),,JUAN PAULLIER,1627,,,,,,2409 11 10,,0.0,0.0,0.0,0.0,0.0,0.0,0.0,,,,,,,,,,,JUAN PAULLIER 1627,-34.89854648489356,-56.16913263050055,,1.0
MONTEVIDEO - ESPECIAL_037,MONTEVIDEO,NINGUNA,ESPECIAL,37,CEN ED PARA EL NIÑO C/DEFICIT AUDITIVO (CEENDA),,ARAUCHO,1390,,,,,,2707 30 51,,0.0,0.0,0.0,0.0,0.0,0.0,0.0,,,,,,,,,,,ARAUCHO 1390,-34.89507345220245,-56.14513591282617,,1.0
MONTEVIDEO - ESPECIAL_040,MONTEVIDEO,NINGUNA,ESPECIAL,40,CENTRO DE REEDUCACION INTEGRAL EL NARANJO,,Av. AGRACIADA,3297,,,,,,2305 42 14,,0.0,0.0,0.0,0.0,0.0,0.0,0.0,,,,,,,,,,,Av. AGRACIADA 3297,-34.871246448055125,-56.20315652159091,,1.0
MONTEVIDEO - ESPECIAL_041,MONTEVIDEO,NINGUNA,ESPECIAL,41,ASOC. PARA DISCAPACITADOS INTELECTUALES AMANECERES,,Av. MILLAN,2822,,,,,,2204 45 46,,0.0,0.0,0.0,0.0,0.0,0.0,0.0,,,,,,,,,,,Av. MILLAN 2822,-34.874679896773046,-56.18823243113786,,1.0
MONTEVIDEO - ESPECIAL_044,MONTEVIDEO,NINGUNA,ESPECIAL,44,CENTRO INTERDISCIPLINARIO CICLO,,CORRALES ,3735 bis,CORRALES ,3886,,,,2215 90 73,DIRECCIÓN 2 es el ANEXO,0.0,0.0,0.0,0.0,0.0,0.0,0.0,,,,,,,,,,,CORRALES  3735 bis,-34.847716594737044,-56.153803265203926,,1.0
MONTEVIDEO - ESPECIAL_046,MONTEVIDEO,NINGUNA,ESPECIAL,46,ATELIER ARTISTICO INTEGRAL (T.A.I.T.A.),,CATALA,2250,,,,,,2486 35 77,,0.0,0.0,0.0,0.0,0.0,0.0,0.0,,,,,,,,,,,CATALA 2250,-34.887101546048825,-56.17114794204812,,1.0
MONTEVIDEO - ESPECIAL_048,MONTEVIDEO,NINGUNA,ESPECIAL,48,ACCION COORD. Y REIVINDICA. DEL IMPEDIDO DEL URU. (A.C.R.I.D.U.),,JUAN GOLFARINI,4045,MALDONADO,1142 (*),,,,2628 07 77 / 2901 59 87(*),,0.0,0.0,0.0,0.0,0.0,0.0,0.0,,,,,,,,,,,JUAN GOLFARINI 4045,-34.90420071205009,-56.12591562041061,,1.0
MONTEVIDEO - ESPECIAL_049,MONTEVIDEO,NINGUNA,ESPECIAL,49,FUNDACION YBYRAY,,Gral.THIEBAUT,1816,,,,,,2481 17 69,,0.0,0.0,0.0,0.0,0.0,0.0,0.0,,,,,,,,,,,Gral.THIEBAUT 1816,-34.891197266142235,-56.13395986801953,,1.0
MONTEVIDEO - ESPECIAL_050,MONTEVIDEO,NINGUNA,ESPECIAL,50,CEN. DE INVEST. Y DESARROLLO PARA LA PERSONA SORDA (CINDE),,GIL,945,,,,,,2308 32 12 / 2309 92 28,,0.0,0.0,0.0,0.0,0.0,0.0,0.0,,,,,,,,,,,GIL 945,-34.867391000001135,-56.33141299999997,,1.0
MONTEVIDEO - ESPECIAL_052,MONTEVIDEO,NINGUNA,ESPECIAL,52,CENTRO INTEGRA - C.A.D.A.,,LA PAZ,2327,,,,,,2400 28 38,,0.0,0.0,0.0,0.0,0.0,0.0,0.0,,,,,,,,,,,LA PAZ 2327,-34.893863070641515,-56.16819262482866,,1.0
MONTEVIDEO - ESPECIAL_053,MONTEVIDEO,NINGUNA,ESPECIAL,53,FUNDACION BRAILLE DEL URUGUAY (F.B.U.),,GERMAN BARBATO,1466,,,,,,2900 14 48,,0.0,0.0,0.0,0.0,0.0,0.0,0.0,,,,,,,,,,,GERMAN BARBATO 1466,-34.903308712468245,-56.18620959192312,,1.0
MONTEVIDEO - ESPECIAL_054,MONTEVIDEO,NINGUNA,ESPECIAL,54,C.E.I.D.A.,,AV. LUIS A. DE HERRERA,2655,,,,,,2480 95 76,,0.0,0.0,0.0,0.0,0.0,0.0,0.0,,,,,,,,,,,AV. LUIS A. DE HERRERA 2655,-34.880527094752026,-56.154395349314576,,1.0
MONTEVIDEO - ESPECIAL_055,MONTEVIDEO,NINGUNA,ESPECIAL,55,CENTRO DE ATENCIÓN TÉCNICO ESPECIALIZADA (C.A.T.E.),,AV. MILLÁN,3836,,,,,,2336 58 34,,0.0,0.0,0.0,0.0,0.0,0.0,0.0,,,,,,,,,,,AV. MILLÁN 3836,-34.856644375584274,-56.19635594382974,,1.0
MONTEVIDEO - ESPECIAL_057,MONTEVIDEO,NINGUNA,ESPECIAL,57,ESPACIO RED,,CAMINO MALDONADO,5143,CHILE ,4231 / 4233,,,,2514 06 64,,0.0,0.0,0.0,0.0,0.0,0.0,0.0,,,,,,,,,,,CAMINO MALDONADO 5143,-34.85133661661546,-56.128762150122405,,1.0
ARTIGAS - HABILITADO_001,ARTIGAS,NINGUNA,HABILITADO,1,JUAN PABLO II,D,JOSE PEDRO VARELA,314,,,,,ARTIGAS,4772 24 16,,0.0,0.0,0.0,0.0,0.0,0.0,0.0,,,,,,,,,,,JOSE PEDRO VARELA 314,-30.40482365012752,-56.46921507601232,,1.0
ARTIGAS - HABILITADO_003,ARTIGAS,NINGUNA,HABILITADO,3,BLOOMFIELD SCHOOL,,GARZÓN,212,,,,,ARTIGAS,4772 40 00,,0.0,0.0,0.0,0.0,0.0,0.0,0.0,,,,,,,,,,,GARZÓN 212,-30.398460803192588,-56.46461525954607,,1.0
ARTIGAS - HABILITADO_004,ARTIGAS,NINGUNA,HABILITADO,4,INSTITUTO URUGUAYO BRASILERO,,AVDA. CORONEL CARLOS LECUEDER,869,,,,,,,,,,,,,,,,,,,,,,,,,AVDA. CORONEL CARLOS LECUEDER 869,-30.408347734696207,-56.473292838810885,,1.0
ARTIGAS - HABILITADO_005,ARTIGAS,NINGUNA,HABILITADO,5,TACUABÉ,,AVDA. GARZÓN,675- 679,,,,,,,,,,,,,,,,,,,,,,,,,AVDA. GARZÓN 675- 679,-30.40499614107302,-56.47125056616126,,1.0
ARTIGAS - ESPECIAL_001,ARTIGAS,NINGUNA,ESPECIAL,1,ADDA. CARITAS DE ESPERANZA,,,,,,,,ARTIGAS,4773 28 15,,0.0,0.0,0.0,0.0,0.0,0.0,0.0,,,,,,,,,,,,-30.41139112041941,-56.480254267296914,,1.0
ARTIGAS - ESPECIAL_002,ARTIGAS,NINGUNA,ESPECIAL,2,T.A.P.A.C.,,,,,,,,ARTIGAS,4773 32 70,,0.0,0.0,0.0,0.0,0.0,0.0,0.0,,,,,,,,,,,,-30.41139112041941,-56.480254267296914,,1.0
CANELONES - HABILITADO_001,CANELONES,OESTE,HABILITADO,1,ADVENTISTA (J. SUAREZ),T,RUTA 5 Km 33.500,S/N,,,,,PROGRESO,2369 21 10,,0.0,0.0,0.0,0.0,0.0,0.0,0.0,,,,,,,,,,,RUTA 5 Km 33.500 S/N,-34.61719304291527,-56.25787065806241,,1.0
CANELONES - HABILITADO_002,CANELONES,OESTE,HABILITADO,2,INMACULADA CONCEPCION,D,RIVERA,538,,,,,SANTA LUCIA,4334 62 64,,0.0,0.0,0.0,0.0,0.0,0.0,0.0,,,,,,,,,,,RIVERA 538,-34.52897337677252,-56.28500923335353,,1.0
CANELONES - HABILITADO_004,CANELONES,PANDO,HABILITADO,4,Ntra. Sra. DEL HUERTO,T,Av. ARTIGAS,902,,,,,PANDO,2292 21 65,,0.0,0.0,0.0,0.0,0.0,0.0,0.0,,,,,,,,,,,Av. ARTIGAS 902,-34.524988794431835,-56.2877054598763,,1.0
CANELONES - HABILITADO_006,CANELONES,OESTE,HABILITADO,6,SAN JOSE,D,LAVALLEJA,664,,,,,LAS PIEDRAS,2364 43 48,,0.0,0.0,0.0,0.0,0.0,0.0,0.0,,,,,,,,,,,LAVALLEJA 664,-34.522233815038625,-56.27422302850924,,1.0
CANELONES - HABILITADO_007,CANELONES,OESTE,HABILITADO,7,SAN ISIDRO,D,Gral. FLORES,654,,,,,LAS PIEDRAS,2364 42 23,,0.0,0.0,0.0,0.0,0.0,0.0,0.0,,,,,,,,,,,Gral. FLORES 654,-34.585979869505415,-55.773323109022066,,1.0
CANELONES - HABILITADO_008,CANELONES,OESTE,HABILITADO,8,MARIA AUXILIADORA,D,TREINTA Y TRES,654,,,,,CANELONES,433-22261,,0.0,0.0,0.0,0.0,0.0,0.0,0.0,,,,,,,,,,,TREINTA Y TRES 654,-34.52275077526318,-56.28096565962764,,1.0
CANELONES - HABILITADO_009,CANELONES,OESTE,HABILITADO,9,SANTA ISABEL,D,RUTA 36 y Gral. OTORGUES,S/N,,,,,LOS CERRILLOS,62080,,0.0,0.0,0.0,0.0,0.0,0.0,0.0,,,,,,,,,,,RUTA 36 y Gral. OTORGUES S/N,-34.313042300337585,-55.96774449567409,,1.0
CANELONES - HABILITADO_010,CANELONES,PANDO,HABILITADO,10,SAN JOSE,T,LUIS A. DE HERRERA,S/N,,,,,SAN JACINTO,439-92704,entre VERA y CANELONES,0.0,0.0,0.0,0.0,0.0,0.0,0.0,,,,,,,,,,,LUIS A. DE HERRERA S/N,-34.53125808895093,-56.279414120995746,,1.0
CANELONES - HABILITADO_012,CANELONES,PANDO,HABILITADO,12,SAN JOSE,D,LUIS A. DE HERRERA ,S/N,,,,,MIGUES,431-72073,entre MIGUES y DA SILVA,0.0,0.0,0.0,0.0,0.0,0.0,0.0,,,,,,,,,,,LUIS A. DE HERRERA  S/N,-34.53125808895093,-56.279414120995746,,1.0
CANELONES - HABILITADO_014,CANELONES,COSTA,HABILITADO,14,Ntra. Sra. DEL ROSARIO,D,RUTA 11 Km 165,-,,,,,ESTACION ATLANTIDA,4372 07 96 / 4372 29 23,,0.0,0.0,0.0,0.0,0.0,0.0,0.0,,,,,,,,,,,RUTA 11 Km 165 -,-34.6222482,-55.9903797,,4.0
CANELONES - HABILITADO_016,CANELONES,OESTE,HABILITADO,16,SAN ADOLFO,T,MILLAN y JOSE NOVOA,S/N,,,,,EL DORADO,2364 01 51,,0.0,0.0,0.0,0.0,0.0,0.0,0.0,,,,,,,,,,,MILLAN y JOSE NOVOA S/N,-34.70242695432229,-56.21793856515942,,1.0
CANELONES - HABILITADO_018,CANELONES,OESTE,HABILITADO,18,EDUARDO FABINI,D,MANUEL MELENDEZ,876,,,,,LAS PIEDRAS,2364 59 72,,0.0,0.0,0.0,0.0,0.0,0.0,0.0,,,,,,,,,,,MANUEL MELENDEZ 876,-34.79737376012399,-55.884485440738935,,1.0
CANELONES - HABILITADO_019,CANELONES,COSTA,HABILITADO,19,Sdo. CORAZON Y SAN FRANCISCO,D,Av. GARCIA LAGOS Km. 14.500 y Cno. CARRASCO,10,,,,,PASO CARRASCO,2601 12 99,,0.0,0.0,0.0,0.0,0.0,0.0,0.0,,,,,,,,,,,Av. GARCIA LAGOS Km. 14.500 y Cno. CARRASCO 10,-34.829359931723694,-55.97956452263698,,1.0
CANELONES - HABILITADO_020,CANELONES,PANDO,HABILITADO,20,SAN LUIS,D,TREINTA Y TRES y FERREIRA ALDUNATE,S/N,,,,,PANDO,2292 21 73,,0.0,0.0,0.0,0.0,0.0,0.0,0.0,,,,,,,,,,,TREINTA Y TRES y FERREIRA ALDUNATE S/N,-34.51973358959646,-56.286696854531655,,1.0
CANELONES - HABILITADO_021,CANELONES,PANDO,HABILITADO,21,CRISTO REY,D,Cno. DE LAS TROPAS y RUTA 85,S/N,,,,,TOLEDO,2296 86 84,,0.0,0.0,0.0,0.0,0.0,0.0,0.0,,,,,,,,,,,Cno. DE LAS TROPAS y RUTA 85 S/N,-34.522100110543924,-56.2940305553203,,1.0
CANELONES - HABILITADO_022,CANELONES,PANDO,HABILITADO,22,DIVINO SALVADOR,D,CONRADO VILLEGAS,S/N,,,,,TALA,431-52051,,0.0,0.0,0.0,0.0,0.0,0.0,0.0,,,,,,,,,,,CONRADO VILLEGAS S/N,-34.347235862375264,-55.76619874660255,,1.0
CANELONES - HABILITADO_023,CANELONES,COSTA,HABILITADO,23,VIRGEN DE LAS FLORES,D,Av. DEL SANTUARIO,S/N,,,,,LA FLORESTA,437-39125,,0.0,0.0,0.0,0.0,0.0,0.0,0.0,,,,,,,,,,,Av. DEL SANTUARIO S/N,-34.728611403152016,-55.6826096158433,,1.0
CANELONES - HABILITADO_024,CANELONES,PANDO,HABILITADO,24,Ntra. Sra. DEL PERPETUO SOCORRRO,T,Av. ARTIGAS,1368,,,,,SAUCE,2294 02 42,,0.0,0.0,0.0,0.0,0.0,0.0,0.0,,,,,,,,,,,Av. ARTIGAS 1368,-34.524988794431835,-56.2877054598763,,1.0
CANELONES - HABILITADO_029,CANELONES,OESTE,HABILITADO,29,JOSE MARIA PARODI,T,LIBERTADOR SAN MARTIN,107,,,,,LAS PIEDRAS,2364 00 87,,0.0,0.0,0.0,0.0,0.0,0.0,0.0,,,,,,,,,,,LIBERTADOR SAN MARTIN 107,-34.527787242165495,-56.27638666397721,,1.0
CANELONES - HABILITADO_030,CANELONES,PANDO,HABILITADO,30,SAN FRANCISCO DE ASIS,D,SOLIS y ROMULO CARLO,S/N,,,,,SUAREZ,2297 29 49,,0.0,0.0,0.0,0.0,0.0,0.0,0.0,,,,,,,,,,,SOLIS y ROMULO CARLO S/N,-34.737645961392715,-56.033698130902124,,1.0
CANELONES - HABILITADO_031,CANELONES,OESTE,HABILITADO,31,"ESCUELA DE ED. NATURAL ""GLOBO ROJO""",D,LUIS ALBERTO DE HERRERA,703,,,,,LAS PIEDRAS,2365 18 30,,0.0,0.0,0.0,0.0,0.0,0.0,0.0,,,,,,,,,,,LUIS ALBERTO DE HERRERA 703,-34.52194576580123,-56.27903170755667,,1.0
CANELONES - HABILITADO_032,CANELONES,COSTA,HABILITADO,32,SANTA ELENA,T,COSTANERA Km. 21.500 y RIO DE JANERIO,-,,,,,LAGOMAR,2682 30 07,,0.0,0.0,0.0,0.0,0.0,0.0,0.0,,,,,,,,,,,COSTANERA Km. 21.500 y RIO DE JANERIO -,-34.778275331935916,-55.5660211597394,,1.0
CANELONES - HABILITADO_033,CANELONES,OESTE,HABILITADO,33,NEW CASTEL SCHOOL,D,ARTIGAS,462,,,,,LAS PIEDRAS,2364 26 50,,0.0,0.0,0.0,0.0,0.0,0.0,0.0,,,,,,,,,,,ARTIGAS 462,-34.5252503602844,-56.28370434998303,,1.0
CANELONES - HABILITADO_035,CANELONES,COSTA,HABILITADO,35,COLEGIO INTEGRAL SOLYMAR (C.I.S.),T,CALLE 36 (M.D1 S.11 y12) entre URUGUAY y 78,-,,,,,SOLYMAR,2696 26 13,,0.0,0.0,0.0,0.0,0.0,0.0,0.0,,,,,,,,,,,CALLE 36 (M.D1 S.11 y12) entre URUGUAY y 78 -,-34.6914573671666,-56.21301468027248,,1.0
CANELONES - HABILITADO_037,CANELONES,PANDO,HABILITADO,37,CRECEMOS ESCUELA INTEGRAL,C,18 DE JULIO,933,,,,,PANDO,2292 74 04,,0.0,0.0,0.0,0.0,0.0,0.0,0.0,,,,,,,,,,,18 DE JULIO 933,-34.534492024983756,-56.283881289072816,,1.0
CANELONES - HABILITADO_041,CANELONES,COSTA,HABILITADO,41,WILLOW SCHOOL,C,YAGUARETE (M.36 S.6),-,,,,,SALINAS,437- 69690,,0.0,0.0,0.0,0.0,0.0,0.0,0.0,,,,,,,,,,,YAGUARETE (M.36 S.6) -,-34.522071850575536,-56.280984177023306,,1.0
CANELONES - HABILITADO_043,CANELONES,OESTE,HABILITADO,43,"COLEGIO CONSTRUCTIVISTA ""JEAN PIAGET""",D,18 DE JULIO ,522,,,,,LAS PIEDRAS,2364 84 11,,0.0,0.0,0.0,0.0,0.0,0.0,0.0,,,,,,,,,,,18 DE JULIO  522,-34.534492024983756,-56.283881289072816,,1.0
CANELONES - HABILITADO_044,CANELONES,OESTE,HABILITADO,44,SANTA MARGARITA,T,SINEIRO y Gral. ARTIGAS,-,,,,,SAN RAMÓN,4312- 2855,,0.0,0.0,0.0,0.0,0.0,0.0,0.0,,,,,,,,,,,SINEIRO y Gral. ARTIGAS -,-34.52562528440732,-56.28019973002154,,1.0
CANELONES - HABILITADO_045,CANELONES,COSTA,HABILITADO,45,LA AMISTAD,T,BRASIL (M.92 S.26),-,,,,,SOLYMAR,2695 88 60,,0.0,0.0,0.0,0.0,0.0,0.0,0.0,,,,,,,,,,,BRASIL (M.92 S.26) -,-34.78004939085544,-55.56423415143227,,1.0
CANELONES - HABILITADO_046,CANELONES,OESTE,HABILITADO,46,CEN. EDUCATIVO INTEGRAL (CEI),D,LIBERTAD,381,,,,,LA PAZ,2362 50 54,,0.0,0.0,0.0,0.0,0.0,0.0,0.0,,,,,,,,,,,LIBERTAD 381,-34.71910442571816,-56.05229685152955,,1.0
CANELONES - HABILITADO_047,CANELONES,PANDO,HABILITADO,47,INTEGRAL DE BARROS BLANCOS (C.I.B.B.),D,RUTA 8 Km 25.600 LORENZO VENTURA y PAYSANDÚ,S/N,,,,,BARROS BLANCOS,22885256,,0.0,0.0,0.0,0.0,0.0,0.0,0.0,,,,,,,,,,,RUTA 8 Km 25.600 LORENZO VENTURA y PAYSANDÚ S/N,-34.6222482,-55.9903797,,4.0
CANELONES - HABILITADO_050,CANELONES,COSTA,HABILITADO,50,LAGOMAR,D,RIO DANUBIO y RIO DE JANEIRO,-,,,,,LAGOMAR,2682 27 36,,0.0,0.0,0.0,0.0,0.0,0.0,0.0,,,,,,,,,,,RIO DANUBIO y RIO DE JANEIRO -,-34.778275331935916,-55.5660211597394,,1.0
CANELONES - HABILITADO_051,CANELONES,COSTA,HABILITADO,51,INST. BASICO INT. DEL SUR (I.B.I.S.),D,RIO DE JANEIRO (M.124 S .4),-,,,,,LAGOMAR SUR,2682 32 13,,0.0,0.0,0.0,0.0,0.0,0.0,0.0,,,,,,,,,,,RIO DE JANEIRO (M.124 S .4) -,-34.778275331935916,-55.5660211597394,,1.0
CANELONES - HABILITADO_053,CANELONES,OESTE,HABILITADO,53,CAMINOS ABIERTOS- SILVIA PAUER,D,PARAGUAY,739,,,,,LAS PIEDRAS,2363 75 76,,0.0,0.0,0.0,0.0,0.0,0.0,0.0,,,,,,,,,,,PARAGUAY 739,-34.77552005122155,-55.58528352030138,,1.0
CANELONES - HABILITADO_054,CANELONES,COSTA,HABILITADO,54,INST. URUGUA,D,RAMBLA COSTANERA y OCEANO PACIFICO,S/N,,,,,EL PINAR,2698 73 65,,0.0,0.0,0.0,0.0,0.0,0.0,0.0,,,,,,,,,,,RAMBLA COSTANERA y OCEANO PACIFICO S/N,-34.7844616953484,-55.83978379349099,,1.0
CANELONES - HABILITADO_056,CANELONES,COSTA,HABILITADO,56,GOLDEN COAST COLLEGE,D,CALLE 7 y NOGUEIRA,S/N,,,,,SALINAS,437-62793,,0.0,0.0,0.0,0.0,0.0,0.0,0.0,,,,,,,,,,,CALLE 7 y NOGUEIRA S/N,-34.71692014631866,-55.98856575034185,,1.0
CANELONES - HABILITADO_057,CANELONES,COSTA,HABILITADO,57,MY TOYS,D,RAMBLA COSTANERA y DEL PLATA,S/N,,,,,SHANGRILA,2682 33 22,,0.0,0.0,0.0,0.0,0.0,0.0,0.0,,,,,,,,,,,RAMBLA COSTANERA y DEL PLATA S/N,-34.73878268871155,-55.712372345328276,,1.0
CANELONES - HABILITADO_058,CANELONES,COSTA,HABILITADO,58,SIGLO XXI - LA CASITA DE LAURA,D,NACIONES UNIDAS y Av. PEREZ BUTLER (M.213B S.9),S/N,,,,,EL PINAR,2698 62 28,,0.0,0.0,0.0,0.0,0.0,0.0,0.0,,,,,,,,,,,NACIONES UNIDAS y Av. PEREZ BUTLER (M.213B S.9) S/N,-34.79749727430558,-55.9122042513048,,1.0
CANELONES - HABILITADO_060,CANELONES,COSTA,HABILITADO,60,FRANCISCO ESPINOLA,D,ALFREDO GARCÍA LARGOS,56,,,,,PASO CARRASCO,2604 69 88,,0.0,0.0,0.0,0.0,0.0,0.0,0.0,,,,,,,,,,,ALFREDO GARCÍA LARGOS 56,-34.71959376904493,-55.881496916262215,,1.0
CANELONES - HABILITADO_061,CANELONES,OESTE,HABILITADO,61,ANDARES,D,ROCHA entre FLORES Y FLORIDA,S/N,,,,,PROGRESO,,,0.0,0.0,0.0,0.0,0.0,0.0,0.0,,,,,,,,,,,ROCHA entre FLORES Y FLORIDA S/N,-34.6958129,-56.21923939052609,,3.0
CANELONES - HABILITADO_062,CANELONES,COSTA,HABILITADO,62,ALEMAN,D,Av. GIANNATTASIO Km.16,9325,,,,,BARRA DE CARRASCO,2601 21 33,,0.0,0.0,0.0,0.0,0.0,0.0,0.0,,,,,,,,,,,Av. GIANNATTASIO Km.16 9325,-34.87122844416701,-56.02790914443884,,1.0
CANELONES - HABILITADO_063,CANELONES,COSTA,HABILITADO,63,CEN. EDUCATIVO Y FORMATIVO BARRADAS,D,Av. MARIO FERREIRA ,S/N,,,,,LAS TOSCAS,437-28473,,0.0,0.0,0.0,0.0,0.0,0.0,0.0,,,,,,,,,,,Av. MARIO FERREIRA  S/N,-34.51973358959646,-56.286696854531655,,1.0
CANELONES - HABILITADO_065,CANELONES,COSTA,HABILITADO,65,DOLPHIN´S SCHOOL´S,D,ATLANTIDA y Av. AL PARQUE ROOSEVELT,1912,,,,,BARRA DE CARRASCO,2601 20 99,,0.0,0.0,0.0,0.0,0.0,0.0,0.0,,,,,,,,,,,ATLANTIDA y Av. AL PARQUE ROOSEVELT 1912,-34.78089344075756,-55.56535618327157,,1.0
CANELONES - HABILITADO_066,CANELONES,COSTA,HABILITADO,66,CEN. EDUCATIVO ARETEIA,D,APOLO XIII entre GESTIDO y RAMBLA,1044,,,,,SOLYMAR,2695 81 13,,0.0,0.0,0.0,0.0,0.0,0.0,0.0,,,,,,,,,,,APOLO XIII entre GESTIDO y RAMBLA 1044,-34.801112,-55.9561861,,3.0
CANELONES - HABILITADO_067,CANELONES,PANDO,HABILITADO,67,CEN. EDUCATIVO ADVENTISTA,D,RUTA 8 Km. 24.200 PITANGAS y ELECTRON,-,,,,,BARROS BLANCOS,2288 02 25,,0.0,0.0,0.0,0.0,0.0,0.0,0.0,,,,,,,,,,,RUTA 8 Km. 24.200 PITANGAS y ELECTRON -,-34.6222482,-55.9903797,,4.0
CANELONES - HABILITADO_068,CANELONES,PANDO,HABILITADO,68,CEN. DE EDUCACION INTEGRAL ANDALUZ,D,RUTA 84 Km. 1.200 CAMINO DEL ANDALUZ,-,,,,,CASARINO,2296 45 84,,0.0,0.0,0.0,0.0,0.0,0.0,0.0,,,,,,,,,,,RUTA 84 Km. 1.200 CAMINO DEL ANDALUZ -,-34.7481715,-56.0638085,,2.0
CANELONES - HABILITADO_069,CANELONES,COSTA,HABILITADO,69,KIDS PLACE,,AVDA DUTLER (M147 S11),,,,,,EL PINAR,2698 33 89  INT 170,,0.0,0.0,0.0,0.0,0.0,0.0,0.0,,,,,,,,,,,AVDA DUTLER (M147 S11),-34.6222482,-55.9903797,,4.0
CANELONES - HABILITADO_072,CANELONES,COSTA,HABILITADO,72,PINARES,D,Ruta Interbalnearia y Calle 18,-,,,,,ATLÁNTIDA,4372 64 95,,0.0,0.0,0.0,0.0,0.0,0.0,0.0,,,,,,,,,,,Ruta Interbalnearia y Calle 18 -,-34.762528055079535,-55.74379524116758,,1.0
CANELONES - HABILITADO_074,CANELONES,COSTA,HABILITADO,74,SALECIANO DE LA COSTA MONSEÑOR J. VERA,D,TUYUTI Y GAVIOTAS,,,,,,LOMAS DE SOLYMAR,2696 11 03,,0.0,0.0,0.0,0.0,0.0,0.0,0.0,,,,,,,,,,,TUYUTI Y GAVIOTAS,-34.75849692786767,-55.987635130214,,1.0
CANELONES - HABILITADO_075,CANELONES,COSTA,HABILITADO,75,KALIMAITA,D,NIZA ESQ. TROUVILLE,,,,,,NEPTUNIA,4376 84 30,,0.0,0.0,0.0,0.0,0.0,0.0,0.0,,,,,,,,,,,NIZA ESQ. TROUVILLE,-34.79127478686617,-55.8629277157068,,1.0
CANELONES - HABILITADO_076,CANELONES,COSTA,HABILITADO,76,GREENLAND SCHOOL,D,BUCHENTAL Y ZORRILLA DE SAN MARTIN,,,,,,SAN JOSE DE CARRASCO,2683 55 14,,0.0,0.0,0.0,0.0,0.0,0.0,0.0,,,,,,,,,,,BUCHENTAL Y ZORRILLA DE SAN MARTIN,-34.527362727952486,-56.28035452820927,,1.0
CANELONES - HABILITADO_077,CANELONES,COSTA,HABILITADO,77,DEL LAGO,,LAS CANDAS S.5 M.33,,,,,,LAGOMAR,2683 14 24,,0.0,0.0,0.0,0.0,0.0,0.0,0.0,,,,,,,,,,,LAS CANDAS S.5 M.33,-34.64956797050174,-56.12310257115396,,1.0
CANELONES - HABILITADO_078,CANELONES,OESTE,HABILITADO,78,CRECER – TOM Y JERRY,,LAS ACACIAS M65 S1,,,,,,PROGRESO,2369 00 25,,0.0,0.0,0.0,0.0,0.0,0.0,0.0,,,,,,,,,,,LAS ACACIAS M65 S1,-34.6958129,-56.21923939052609,,3.0
CANELONES - HABILITADO_079,CANELONES,COSTA,HABILITADO,79,MASTER SCHOOL,,GARCIA AROCENA M50 S30,,,,,,LAGOMAR NORTE,2682 40 78,,0.0,0.0,0.0,0.0,0.0,0.0,0.0,,,,,,,,,,,GARCIA AROCENA M50 S30,-34.6222482,-55.9903797,,4.0
CANELONES - HABILITADO_080,CANELONES,COSTA,HABILITADO,80,PABLO NERUDA,,"RUTA INTERBALNEARIA K 45,800",,,,,,ATLÁNTIDA,4372 1771,,0.0,0.0,0.0,0.0,0.0,0.0,0.0,,,,,,,,,,,"RUTA INTERBALNEARIA K 45,800",-34.7698013,-55.7655763,,3.0
CANELONES - HABILITADO_081,CANELONES,COSTA,HABILITADO,81,IT- HUE,,"AV. GIANNATTASIO KM 29,800",,,,,,PARQUE DE SOLYMAR ,26959118,,0.0,0.0,0.0,0.0,0.0,0.0,0.0,,,,,,,,,,,"AV. GIANNATTASIO KM 29,800",-34.6222482,-55.9903797,,4.0
CANELONES - HABILITADO_082,CANELONES,COSTA,HABILITADO,82,HABÍA UNA VEZ,,RUTA 8 Km 25,,,,,,BARROS BLANCOS,2288 8991,,0.0,0.0,0.0,0.0,0.0,0.0,0.0,,,,,,,,,,,RUTA 8 Km 25,-34.6222482,-55.9903797,,4.0
CANELONES - HABILITADO_083,CANELONES,COSTA,HABILITADO,83,BELÉN,,RUTA 101 KM 25.700,,,,,,BARROS BLANCOS,95698586,,0.0,0.0,0.0,0.0,0.0,0.0,0.0,,,,,,,,,,,RUTA 101 KM 25.700,-34.6222482,-55.9903797,,4.0
CANELONES - HABILITADO_084,CANELONES,COSTA,HABILITADO,84,JUAN SALVADOR GAVIOTA,D,AV. DEL PARQUE M. 8 S. 2 Y PARAGUAY,,,,,,SHANGRILA,26822587,,0.0,0.0,0.0,0.0,0.0,0.0,0.0,,,,,,,,,,,AV. DEL PARQUE M. 8 S. 2 Y PARAGUAY,-34.7402984735044,-55.732153490007235,,1.0
CANELONES - HABILITADO_085,CANELONES,COSTA,HABILITADO,85,COLEGIO DEL ESTE,D,"MANUEL VARELA CACERES M. 1,2,3 S. 21",,,,,,LAGOMAR,2682 7812,,0.0,0.0,0.0,0.0,0.0,0.0,0.0,,,,,,,,,,,"MANUEL VARELA CACERES M. 1,2,3 S. 21",-34.6222482,-55.9903797,,4.0
CANELONES - HABILITADO_086,CANELONES,COSTA,HABILITADO,86,INTEGRAL SENDAS,M,SIMÓN BOLIVAR M J S 7 ,,,,,,EMPALME NICOLICH,095 035 947,,0.0,0.0,0.0,0.0,0.0,0.0,0.0,,,,,,,,,,,SIMÓN BOLIVAR M J S 7 ,-34.76640887432354,-55.59580069635975,,1.0
CANELONES - HABILITADO_087,CANELONES,OESTE,HABILITADO,87,LAS PIEDRAS,D,FRANCISCO SOCA,706,,,,,LAS PIEDRAS,2364 35 52,,0.0,0.0,0.0,0.0,0.0,0.0,0.0,,,,,,,,,,,FRANCISCO SOCA 706,-34.52162427672628,-56.284113562775325,,1.0
CANELONES - CH_088 ,CANELONES,PANDO,HABILITADO,88,JESÚS BENDICE A LOS NIÑOS,,RUTA 74 KM 21,,,,,,SUAREZ,2297 1161,,,,,,,,,,,,,,,,,,,RUTA 74 KM 21,-34.7179008,-56.0449857,,2.0
CANELONES - CH_088 ,CANELONES,COSTA,HABILITADO,89,CUARAHI,,"SEVILLA M 52, S 02",,,,,,SAN JOSE DE CARRASCO,,,,,,,,,,,,,,,,,,,,"SEVILLA M 52, S 02",-34.6222482,-55.9903797,,4.0
,CANELONES,COSTA,HABILITADO,90,CIRCULO MAGICO,,AVDA. PEREZ BUTLER MZ 181 S14,,,,,,EL PINAR,2698 9146,,,,,,,,,,,,,,,,,,,AVDA. PEREZ BUTLER MZ 181 S14,-34.788031003576386,-55.9400700123033,,1.0
,CANELONES,COSTA,HABILITADO,91,HOWARD GARDNER,,RUTA INTERBALNEARIA ESQ. RUTA 11,,,,,,ATLANTIDA,092 664 859,,,,,,,,,,,,,,,,,,,RUTA INTERBALNEARIA ESQ. RUTA 11,-34.7647840518168,-55.74959153186518,,1.0
CANELONES - AUTORIZADO_001,CANELONES,OESTE,AUTORIZADO,1,CRISTO VIENE,D,RUTA 5 Km 24.500,,,,,,LAS PIEDRAS,2364 65 87,,0.0,0.0,0.0,0.0,0.0,0.0,0.0,,,,,,,,,,,RUTA 5 Km 24.500,-34.685668677384875,-56.23982816313348,,1.0
CANELONES - AUTORIZADO_006,CANELONES,OESTE,AUTORIZADO,6,PARROQUIAL SANTA ROSA,T,LLAMBIAS DE OLIVAR y 18 DE JULIO,,,,,,SANTA ROSA,4313 38 63,,0.0,0.0,0.0,0.0,0.0,0.0,0.0,,,,,,,,,,,LLAMBIAS DE OLIVAR y 18 DE JULIO,-34.53438235723739,-56.283371177851116,,1.0
CANELONES - AUTORIZADO_011,CANELONES,OESTE,AUTORIZADO,11,HORACIO QUIROGA,D,LIBERTAD,381 bis,,,,,LA PAZ,2362 27 24,,0.0,0.0,0.0,0.0,0.0,0.0,0.0,,,,,,,,,,,LIBERTAD 381 bis,-34.71910442571816,-56.05229685152955,,1.0
CANELONES - AUTORIZADO_015,CANELONES,COSTA,AUTORIZADO,15,CLIFTON COLLEGE,D,Av. COSTANERA (M.186 S.19),S/N,,,,,EL PINAR,2698 86 01,,0.0,0.0,0.0,0.0,0.0,0.0,0.0,,,,,,,,,,,Av. COSTANERA (M.186 S.19) S/N,-34.77859474445059,-55.81939076708382,,1.0
CANELONES - JARDIN_004,CANELONES,OESTE,JARDIN,4,EL GLOBO ROJO,,JOSE BATLLE Y ORDOÑEZ,702,,,,,,2364.69.31,,0.0,0.0,0.0,0.0,0.0,0.0,0.0,,,,,,,,,,,JOSE BATLLE Y ORDOÑEZ 702,-34.52183788377707,-56.28215035387382,,1.0
CANELONES - JARDIN_005,CANELONES,OESTE,JARDIN,5,EL CASTILLITO,,AV. ARTIGAS ,462,,,,,LAS PIEDRAS,23654 69 31,,0.0,0.0,0.0,0.0,0.0,0.0,0.0,,,,,,,,,,,AV. ARTIGAS  462,-34.5252503602844,-56.28370434998303,,1.0
CANELONES - JARDIN_006,CANELONES,OESTE,JARDIN,6,BARBAPAPA,,18 DE JULIO,522,,,,,LAS PIEDRAS,2364.84.11,,0.0,0.0,0.0,0.0,0.0,0.0,0.0,,,,,,,,,,,18 DE JULIO 522,-34.534492024983756,-56.283881289072816,,1.0
CANELONES - JARDIN_008,CANELONES,PANDO,JARDIN,8,INSTITUTO PREESCOLAR ENTREAMIGOS,,INDEPENDENCIA,840,,,,,PANDO,2292 31 82,(entrada por Piedras 1010),0.0,0.0,0.0,0.0,0.0,0.0,0.0,,,,,,,,,,,INDEPENDENCIA 840,-34.765461060080526,-55.579876923153705,,1.0
CANELONES - JARDIN_011,CANELONES,OESTE,JARDIN,11,LA TORTUGA CLEMENTINA,,ROCHA y FLORIDA,-,,,,,PROGRESO,2368.91.65,,0.0,0.0,0.0,0.0,0.0,0.0,0.0,,,,,,,,,,,ROCHA y FLORIDA -,-34.75038648880597,-55.76256132829288,,1.0
CANELONES - ESPECIAL_002,CANELONES,PANDO,ESPECIAL,2,CEN. PSICOPEDAGOGICO DE PANDO,,WILSON FERREIRA ALDUNATE,854,,,,,PANDO,2292 37 88,,0.0,0.0,0.0,0.0,0.0,0.0,0.0,,,,,,,,,,,WILSON FERREIRA ALDUNATE 854,-34.51974915625389,-56.28704623750148,,1.0
CANELONES - ESPECIAL_004,CANELONES,PANDO,ESPECIAL,4,INSTITUTO NA.CRE.VI.,,PIOVENE,955,,,,,PANDO,2292 80 88,,0.0,0.0,0.0,0.0,0.0,0.0,0.0,,,,,,,,,,,PIOVENE 955,-34.71890999373524,-55.96196397641077,,1.0
CANELONES - ESPECIAL_005,CANELONES,COSTA,ESPECIAL,5,CENTRO DE RE-EDUCACIÓN INTEGRAL (CIDYT),,M 48 S 29,,CIRCUNVALACIÓN ENTRE 6 Y 8,,,,NEPTUNIA,4376 15 45,,0.0,0.0,0.0,0.0,0.0,0.0,0.0,,,,,,,,,,,M 48 S 29,-34.77006893952114,-55.64711271490565,,1.0
CANELONES - ESPECIAL_006,CANELONES,COSTA,ESPECIAL,6,CE. ED. PIRIGUAZÚ,,CIRCUVALENCIÓN 6 Y 8,,,,,,ATLANTIDA,4372 45 17,,0.0,0.0,0.0,0.0,0.0,0.0,0.0,,,,,,,,,,,CIRCUVALENCIÓN 6 Y 8,-34.79259454668745,-55.484792260785056,,1.0
CANELONES - ESPECIAL_007,CANELONES,COSTA,ESPECIAL,7,ESCUELA DE LENGUAJE,,LA PALOMA,1108bis,,,,,BARRA DE CARRASCO,2604 63 14,,0.0,0.0,0.0,0.0,0.0,0.0,0.0,,,,,,,,,,,LA PALOMA 1108bis,-34.48527639517171,-56.11687066513834,,1.0
CANELONES - ESPECIAL_008,CANELONES,OESTE,ESPECIAL,8,C.A.P.D.I. CENTRO DE ATENCIÓN AL APRENDIZAJE EN LA DIVERSIDAD,,TORRE GARCÍA,703,,,,,LAS PIEDRAS,2364 4729,,0.0,0.0,0.0,0.0,0.0,0.0,0.0,,,,,,,,,,,TORRE GARCÍA 703,-34.58187369681165,-56.307338369048736,,1.0
CERRO LARGO - HABILITADO_001,CERRO LARGO,NINGUNA,HABILITADO,1,AGUSTIN DE LA ROSA,T,MIGUEL BARREIRO,1029,,,,,MELO,4642-6856,,0.0,0.0,0.0,0.0,0.0,0.0,0.0,,,,,,,,,,,MIGUEL BARREIRO 1029,-32.36981203137045,-54.16142248433806,,1.0
CERRO LARGO - HABILITADO_002,CERRO LARGO,NINGUNA,HABILITADO,2,MARIA AUXILIADORA,D,LA ROSA,591,,,,,MELO,4642-2285,,0.0,0.0,0.0,0.0,0.0,0.0,0.0,,,,,,,,,,,LA ROSA 591,-32.37490870090123,-54.17184328429385,,1.0
CERRO LARGO - HABILITADO_003,CERRO LARGO,NINGUNA,HABILITADO,3,DAMASO ANTONIO LARRAÑAGA,T,EJIDO,621,,,,,MELO,4642-1162,,0.0,0.0,0.0,0.0,0.0,0.0,0.0,,,,,,,,,,,EJIDO 621,-32.36313075645898,-54.16969220478085,,1.0
CERRO LARGO - HABILITADO_004,CERRO LARGO,NINGUNA,HABILITADO,4,SANTA ANGELA MERICI,D,JUAN PEDRO RAMIREZ,1242,,,,,RIO BRANCO,46753575,,0.0,0.0,0.0,0.0,0.0,0.0,0.0,,,,,,,,,,,JUAN PEDRO RAMIREZ 1242,-32.369614999757225,-54.1479992369411,,1.0
CERRO LARGO - HABILITADO_005,CERRO LARGO,NINGUNA,HABILITADO,5,YVYNARA,D,RUTA 8 PADRON 16331,KM402,,,,,MELO,4643-0495,,0.0,0.0,0.0,0.0,0.0,0.0,0.0,,,,,,,,,,,RUTA 8 PADRON 16331 KM402,-32.3557915,-54.1593134,,3.0
CERRO LARGO - HABILITADO_006,CERRO LARGO,NINGUNA,HABILITADO,6,NTRA. SRA. DE LAS MERCEDES,T,EL FANAL,538,,,,,RIO BRANCO,4675-9575,,0.0,0.0,0.0,0.0,0.0,0.0,0.0,,,,,,,,,,,EL FANAL 538,-32.589151365658644,-53.37517551883944,,1.0
COLONIA - HABILITADO_001,COLONIA,NINGUNA,HABILITADO,1,SAN JUAN BAUTISTA,M,18 DE JULIO,240,,,,,COL. DEL SACRAMENTO,452-22953,,0.0,0.0,0.0,0.0,0.0,0.0,0.0,,,,,,,,,,,18 DE JULIO 240,-34.336453437249546,-57.79989883103701,,1.0
COLONIA - HABILITADO_002,COLONIA,NINGUNA,HABILITADO,2,SAN JOSE,D,18 DE JULIO,S/N,,,,,TARARIRAS,457-42037,,0.0,0.0,0.0,0.0,0.0,0.0,0.0,,,,,,,,,,,18 DE JULIO S/N,-34.3277318317389,-57.79674664274961,,1.0
COLONIA - HABILITADO_003,COLONIA,NINGUNA,HABILITADO,3,MATER TER ADMIRABILIS,D,COLON y LUIS A. DE HERRERA,-,,,,,NUEVA HELVECIA,455-44073,,0.0,0.0,0.0,0.0,0.0,0.0,0.0,,,,,,,,,,,COLON y LUIS A. DE HERRERA -,-34.44697122840236,-57.845093152428475,,1.0
COLONIA - HABILITADO_004,COLONIA,NINGUNA,HABILITADO,4,MARIA AUXILIADORA,D,MERCEDES,215,,,,,JUAN LACAZE,458-62030,,0.0,0.0,0.0,0.0,0.0,0.0,0.0,,,,,,,,,,,MERCEDES 215,-34.3212591600553,-57.34892010496468,,1.0
COLONIA - HABILITADO_005,COLONIA,NINGUNA,HABILITADO,5,MISIONERAS DEL SAGRADO CORAZON,D,ITUZAINGO,S/N,,,,,ROSARIO,455-22280,,0.0,0.0,0.0,0.0,0.0,0.0,0.0,,,,,,,,,,,ITUZAINGO S/N,-34.47204603045002,-57.849268672293,,1.0
COLONIA - HABILITADO_008,COLONIA,NINGUNA,HABILITADO,8,ADVENTISTA AMIEL,T,Av. GILOMEN,1359,,,,,NUEVA HELVECIA,455-45833,,0.0,0.0,0.0,0.0,0.0,0.0,0.0,,,,,,,,,,,Av. GILOMEN 1359,-34.46177290747174,-57.842892136945515,,1.0
COLONIA - HABILITADO_009,COLONIA,NINGUNA,HABILITADO,9,C.E.N.I.,T,MARIA NIMMO y RUTA 21,683,,,,,COL. DEL SACRAMENTO,452-31198,,0.0,0.0,0.0,0.0,0.0,0.0,0.0,,,,,,,,,,,MARIA NIMMO y RUTA 21 683,-34.46179303631189,-57.83969229390439,,1.0
COLONIA - HABILITADO_011,COLONIA,NINGUNA,HABILITADO,11,SAN GABRIEL,D,DANIEL FOSALBA,523,,,,,COL. DE SACRAMENTO,452-31849,,0.0,0.0,0.0,0.0,0.0,0.0,0.0,,,,,,,,,,,DANIEL FOSALBA 523,-34.46844408243751,-57.84343872213704,,1.0
COLONIA - HABILITADO_012,COLONIA,NINGUNA,HABILITADO,12,ESCUELA LOGOSÓFICA SABER,D,18 DE JULIO,1227,,,,,NUEVA HELVECIA,4554 5314,,0.0,0.0,0.0,0.0,0.0,0.0,0.0,,,,,,,,,,,18 DE JULIO 1227,-34.368408446552465,-57.79361182421029,,1.0
COLONIA - HABILITADO_013,COLONIA,NINGUNA,HABILITADO,13,ESCUELA PITAGORAS,,"RUTA 50 KM 5,500  PARAJE ESTANZUELA",,,,,,,4520 34 05,,0.0,0.0,0.0,0.0,0.0,0.0,0.0,,,,,,,,,,,"RUTA 50 KM 5,500  PARAJE ESTANZUELA",-34.4698592,-57.8433679,,4.0
COLONIA - HABILITADO_014,COLONIA,NINGUNA,HABILITADO,14,COLEGIO BILINGÜE DEL CARMEN,,URUGUAY,319,,,,,CARMELO,4542 63 99,,0.0,0.0,0.0,0.0,0.0,0.0,0.0,,,,,,,,,,,URUGUAY 319,-34.43350956735713,-57.70943889502617,,1.0
COLONIA - HABILITADO_015,COLONIA,NINGUNA,HABILITADO,15,CENTRO DE CULTURA LOGOSOFICA,,JOSE ENRIQUE RODO,316,,,,,,,,,,,,,,,,,,,,,,,,,JOSE ENRIQUE RODO 316,-34.44950148354952,-57.84364503821215,,1.0
COLONIA - HABILITADO_016,COLONIA,NINGUNA,HABILITADO,16,SEMILLA MAGNETICA JR.,,FEDERICO FISCHER ,6520,,,,,,,,,,,,,,,,,,,,,,,,,FEDERICO FISCHER  6520,-34.10424987609961,-57.94200185270997,,1.0
COLONIA - JARDIN_003,COLONIA,NINGUNA,JARDIN,3,GENTE MENUDA,-,MARIA NIMMO,683,,,,,COL. DE SACRAMENTO,4522 3641,,0.0,0.0,0.0,0.0,0.0,0.0,0.0,,,,,,,,,,,MARIA NIMMO 683,-34.46179303631189,-57.83969229390439,,1.0
COLONIA - ESPECIAL_002,COLONIA,NINGUNA,ESPECIAL,2,INSTITUTO TECNOLOGICO DE URUGUAY (I.T.U.),-,RIVADAVIA,531,,,,,COL. DE SACRAMENTO,452-31216,,0.0,0.0,0.0,0.0,0.0,0.0,0.0,,,,,,,,,,,RIVADAVIA 531,-34.46935412476456,-57.84328792606212,,1.0
DURAZNO - HABILITADO_002,DURAZNO,NINGUNA,HABILITADO,2,SAN LUIS,T,WILSON FERREIRA ALDUNATE,732,,,,,DURAZNO,436-22028,,0.0,0.0,0.0,0.0,0.0,0.0,0.0,,,,,,,,,,,WILSON FERREIRA ALDUNATE 732,-33.381901004779415,-56.521222477215865,,1.0
DURAZNO - HABILITADO_004,DURAZNO,NINGUNA,HABILITADO,4,MADRE CARMEN,D,FRANCISCO FONTEROSA,S/N,,,,,VILLA DEL CARMEN,436-54006,,0.0,0.0,0.0,0.0,0.0,0.0,0.0,,,,,,,,,,,FRANCISCO FONTEROSA S/N,-33.338076383543815,-56.52274426996821,,1.0
DURAZNO - HABILITADO_006,DURAZNO,NINGUNA,HABILITADO,6,CARLOS SCAFFO,D,BATLLE Y ORDOÑEZ,691,,,,,DURAZNO,4362 67 56,,0.0,0.0,0.0,0.0,0.0,0.0,0.0,,,,,,,,,,,BATLLE Y ORDOÑEZ 691,-33.38126811973578,-56.5212996986127,,1.0
FLORES - HABILITADO_001,FLORES,NINGUNA,HABILITADO,1,SAN JOSE,D,ALFREDO PUIG,391,,,,,TRINIDAD,4364 2464,,0.0,0.0,0.0,0.0,0.0,0.0,0.0,,,,,,,,,,,ALFREDO PUIG 391,-34.088302111670075,-56.235842378044715,,1.0
FLORES - HABILITADO_003,FLORES,NINGUNA,HABILITADO,3,BILINGÜE AMERICAN SCHOOL,D,ARTIGAS ,572,,,,,TRINIDAD,4364 5796,,0.0,0.0,0.0,0.0,0.0,0.0,0.0,,,,,,,,,,,ARTIGAS  572,-34.75936939082666,-55.6737716727802,,1.0
FLORES - HABILITADO_004,FLORES,NINGUNA,HABILITADO,4,GARDNER,D,FRANCISCO FONDAR,459,,,,,TRINIDAD,099 297 499,,0.0,0.0,0.0,0.0,0.0,0.0,0.0,,,,,,,,,,,FRANCISCO FONDAR 459,-33.52580505548933,-58.23108598066425,,1.0
FLORIDA - HABILITADO_001,FLORIDA,NINGUNA,HABILITADO,1,Ntra. Sra. DEL HUERTO,T,Gral. FLORES,3458,,,,,FLORIDA,4352 2004 - 4352 6771,,0.0,0.0,0.0,0.0,0.0,0.0,0.0,,,,,,,,,,,Gral. FLORES 3458,-34.09857526125617,-56.21119013212933,,1.0
FLORIDA - HABILITADO_005,FLORIDA,NINGUNA,HABILITADO,5,SAN JOSE,T,REPUBLICA DE PARAGUAY,S/N,,,,,CASUPA,4311-2281,,0.0,0.0,0.0,0.0,0.0,0.0,0.0,,,,,,,,,,,REPUBLICA DE PARAGUAY S/N,-34.101582306458226,-55.65650859863104,,1.0
FLORIDA - HABILITADO_006,FLORIDA,NINGUNA,HABILITADO,6,MIDLANDS COLLEGE,D,PUBLICA y CALLE 87,S/N,,,,,FLORIDA,435-21510,ANEXO 4256,0.0,0.0,0.0,0.0,0.0,0.0,0.0,,,,,,,,,,,PUBLICA y CALLE 87 S/N,-34.09763847905792,-56.2292711927463,,1.0
FLORIDA - HABILITADO_008,FLORIDA,NINGUNA,HABILITADO,8,SANTA TERESA DE AVILA,D,FAUSTINO LOPEZ,777,,,,,FLORIDA,4351 29 91,,0.0,0.0,0.0,0.0,0.0,0.0,0.0,,,,,,,,,,,FAUSTINO LOPEZ 777,-34.09891453964911,-56.21997553346563,,1.0
FLORIDA - HABILITADO_009,FLORIDA,NINGUNA,HABILITADO,9,GREEN SCHOOL,,FAUSTINO LOPEZ,777,,,,,FLORIDA,,,,,,,,,,,,,,,,,,,,FAUSTINO LOPEZ 777,-34.09891453964911,-56.21997553346563,,1.0
FLORIDA - JARDIN_001,FLORIDA,NINGUNA,JARDIN,1,CEN. DE ED. PREESCOLAR INTEGRAL,,RODO entre BATLLE Y ORDOÑEZ y GALLINAL,529,,,,,FLORIDA,4352 6092,,0.0,0.0,0.0,0.0,0.0,0.0,0.0,,,,,,,,,,,RODO entre BATLLE Y ORDOÑEZ y GALLINAL 529,-34.10128829703308,-56.21527580460425,,1.0
LAVALLEJA - HABILITADO_001,LAVALLEJA,NINGUNA,HABILITADO,1,COOP. Ntra. Sra. DEL VERDUN (CO.N.SE.VER.),T,JUAN ANTONIO LAVALLEJA,513,,,,,MINAS,444-27398,,0.0,0.0,0.0,0.0,0.0,0.0,0.0,,,,,,,,,,,JUAN ANTONIO LAVALLEJA 513,-33.4567030083982,-54.53607073478321,,1.0
LAVALLEJA - HABILITADO_002,LAVALLEJA,NINGUNA,HABILITADO,2,SAN JOSE,T,Av. ARTIGAS,1226,,,,,MINAS,444-22018,,0.0,0.0,0.0,0.0,0.0,0.0,0.0,,,,,,,,,,,Av. ARTIGAS 1226,-33.933422764487844,-57.81045120430343,,1.0
LAVALLEJA - HABILITADO_004,LAVALLEJA,NINGUNA,HABILITADO,4,MARIA AUXILIADORA,D,DUBRA,S/N,,,,,BATLLE Y ORDOÑEZ,446-92099,,0.0,0.0,0.0,0.0,0.0,0.0,0.0,,,,,,,,,,,DUBRA S/N,-33.47219229370028,-55.14613316323228,,1.0
LAVALLEJA - HABILITADO_005,LAVALLEJA,NINGUNA,HABILITADO,5,LA PRESENTACION,M,MARIA COYA,S/N,,,,,JOSE PEDRO VARELA,445-59168,,0.0,0.0,0.0,0.0,0.0,0.0,0.0,,,,,,,,,,,MARIA COYA S/N,-33.4533102591647,-54.53086811363768,,1.0
LAVALLEJA - HABILITADO_007,LAVALLEJA,NINGUNA,HABILITADO,7,INSTITUTO DE EDUCACION INTEGRAL,D,25 DE MAYO,664,,,,,MINAS,444-22140,,0.0,0.0,0.0,0.0,0.0,0.0,0.0,,,,,,,,,,,25 DE MAYO 664,-33.94153359010076,-57.8101260666912,,1.0
LAVALLEJA - HABILITADO_008,LAVALLEJA,NINGUNA,HABILITADO,8,BILINGÜE DE MINAS,D,DOMINGO PEREZ,580,,,,,MINAS,444-26080,,0.0,0.0,0.0,0.0,0.0,0.0,0.0,,,,,,,,,,,DOMINGO PEREZ 580,-33.454146234754695,-54.529835354538044,,1.0
LAVALLEJA - ESPECIAL_001,LAVALLEJA,NINGUNA,ESPECIAL,1,CENTRO DESPERTAR,D,TREINTA Y TRES,437,,,,,MINAS,44426709,,0.0,0.0,0.0,0.0,0.0,0.0,0.0,,,,,,,,,,,TREINTA Y TRES 437,-34.59732284237876,-55.46439121347488,,1.0
MALDONADO - HABILITADO_001,MALDONADO,NINGUNA,HABILITADO,1,HERMANAS CAPUCHINAS,T,Dr. EDYE,738,,,,,MALDONADO,42-223441,,0.0,0.0,0.0,0.0,0.0,0.0,0.0,,,,,,,,,,,Dr. EDYE 738,-34.90569071123306,-54.95717544013167,,1.0
MALDONADO - HABILITADO_002,MALDONADO,NINGUNA,HABILITADO,2,SAN FRANCISCO DE ASIS,D,SANABRIA y BUENOS AIRES,S/N,,,,,PIRIAPOLIS,4432 12 60,,0.0,0.0,0.0,0.0,0.0,0.0,0.0,,,,,,,,,,,SANABRIA y BUENOS AIRES S/N,-34.88603557709688,-55.22152243086713,,1.0
MALDONADO - HABILITADO_003,MALDONADO,NINGUNA,HABILITADO,3,Ntra. Sra. DEL ROSARIO,D,18 DE JULIO,770,,,,,SAN CARLOS,42-669194,,0.0,0.0,0.0,0.0,0.0,0.0,0.0,,,,,,,,,,,18 DE JULIO 770,-34.90961019193688,-54.95862853105241,,1.0
MALDONADO - HABILITADO_004,MALDONADO,NINGUNA,HABILITADO,4,VIRGEN DEL SANTANDER,D,25 DE MAYO,828,,,,,MALDONADO,442-21811,,0.0,0.0,0.0,0.0,0.0,0.0,0.0,,,,,,,,,,,25 DE MAYO 828,-34.9091251555966,-54.959157590260254,,1.0
MALDONADO - HABILITADO_008,MALDONADO,NINGUNA,HABILITADO,8,INSTITUTO URUGUAYO ARGENTINO (I.U.A.),D,LA FORET y PASCUAL GATTAS,-,,,,,PUNTA DEL ESTE,42-483233 / 42-487948,,0.0,0.0,0.0,0.0,0.0,0.0,0.0,,,,,,,,,,,LA FORET y PASCUAL GATTAS -,-34.94321248674626,-54.936733112127335,,1.0
MALDONADO - HABILITADO_014,MALDONADO,NINGUNA,HABILITADO,14,INSTITUTO DE EDUCACIÓN PAN DE AZÚCAR,D,LEONARDO OLIVERA,718,,,,,PAN DE AZUCAR,443-48303,,0.0,0.0,0.0,0.0,0.0,0.0,0.0,,,,,,,,,,,LEONARDO OLIVERA 718,-34.90419291678954,-54.95206996219834,,1.0
MALDONADO - HABILITADO_016,MALDONADO,NINGUNA,HABILITADO,16,JARDiN Y COLEGIO MALDONADO,D,Av. LAVALLEJA y18 DE JULIO,-,,,,,MALDONADO,42-22337,,0.0,0.0,0.0,0.0,0.0,0.0,0.0,,,,,,,,,,,Av. LAVALLEJA y18 DE JULIO -,-34.90461870812096,-54.95883402128665,,1.0
MALDONADO - HABILITADO_017,MALDONADO,NINGUNA,HABILITADO,17,INTERNATIONAL BILINGUAL SCHOOL (I.B.S.),T,ISLANDIA y LUXEMBURGO,-,,,,,MÓNACO,42-233893,,0.0,0.0,0.0,0.0,0.0,0.0,0.0,,,,,,,,,,,ISLANDIA y LUXEMBURGO -,-34.919799593645386,-54.953927978096765,,1.0
MALDONADO - HABILITADO_018,MALDONADO,NINGUNA,HABILITADO,18,PINARES DEL ESTE,D,LOS GLADIOLOS y LAS BEGONIAS,-,,,,,MALDONADO,442-27485,,0.0,0.0,0.0,0.0,0.0,0.0,0.0,,,,,,,,,,,LOS GLADIOLOS y LAS BEGONIAS -,-34.907414536688805,-54.97207004435446,,1.0
MALDONADO - HABILITADO_019,MALDONADO,NINGUNA,HABILITADO,19,INST. EDUCATIVO CAROLINO (I.E.C.),D,CURBELO,673,,,,,SAN CARLOS,42-663494,,0.0,0.0,0.0,0.0,0.0,0.0,0.0,,,,,,,,,,,CURBELO 673,-34.79426965422911,-54.9156004234919,,1.0
MALDONADO - HABILITADO_021,MALDONADO,NINGUNA,HABILITADO,21,JOAQUiN TORRES GARCIA,D,MONTECARLO y SORRENTO,S/N,,,,,PIRIAPOLIS,443-26628,,0.0,0.0,0.0,0.0,0.0,0.0,0.0,,,,,,,,,,,MONTECARLO y SORRENTO S/N,-34.87551926643262,-55.11608158097005,,1.0
MALDONADO - HABILITADO_022,MALDONADO,NINGUNA,HABILITADO,22,INSTITUTO SAN CARLOS,D,RINCON,981,,,,,SAN CARLOS,426-69036,,0.0,0.0,0.0,0.0,0.0,0.0,0.0,,,,,,,,,,,RINCON 981,-34.905740192141494,-54.955347046522206,,1.0
MALDONADO - HABILITADO_024,MALDONADO,NINGUNA,HABILITADO,24,EL PRINCIPITO,D,RUTA 37 entre MAGALLANES y GABOTO ,S/N,,,,,PIRIAPOLIS,443-26162,,0.0,0.0,0.0,0.0,0.0,0.0,0.0,,,,,,,,,,,RUTA 37 entre MAGALLANES y GABOTO  S/N,-34.9087162,-54.9582718,,4.0
MALDONADO - HABILITADO_025,MALDONADO,NINGUNA,HABILITADO,25,WOODSIDE SCHOOL,D,SHAKESPEARE y CALDERON DE LA BARCA,S/N,,,,,PUNTA DEL ESTE,442-52558 / 442-27238,,0.0,0.0,0.0,0.0,0.0,0.0,0.0,,,,,,,,,,,SHAKESPEARE y CALDERON DE LA BARCA S/N,-34.91922231701257,-54.941908077052766,,1.0
MALDONADO - HABILITADO_026,MALDONADO,NINGUNA,HABILITADO,26,SAINT JOSEPH MARY COLLEGE,D,Bv. ARTIGAS y LOUVRE,S/N,,,,,PUNTA DEL ESTE,422-48979 / 422-48980,,0.0,0.0,0.0,0.0,0.0,0.0,0.0,,,,,,,,,,,Bv. ARTIGAS y LOUVRE S/N,-34.91965731311379,-54.94363788620477,,1.0
MALDONADO - HABILITADO_027,MALDONADO,NINGUNA,HABILITADO,27,SAINT CLARE'S COLLEGE,D,CALIFORNIA y LOS MEDANOS,S/N,,,,,PUNTA DEL ESTE,424-90200,,0.0,0.0,0.0,0.0,0.0,0.0,0.0,,,,,,,,,,,CALIFORNIA y LOS MEDANOS S/N,-34.93461690857959,-54.91956021261082,,1.0
MALDONADO - HABILITADO_028,MALDONADO,NINGUNA,HABILITADO,28,BIARRITZ,D,SERAFIN J. GARCÍA,S/N,,,,,MALDONADO,4224 3107,PREESCOLAR MANITOS SUCIAS,0.0,0.0,0.0,0.0,0.0,0.0,0.0,,,,,,,,,,,SERAFIN J. GARCÍA S/N,-34.88766796200063,-54.94196768895901,,1.0
MALDONADO - HABILITADO_032,MALDONADO,NINGUNA,HABILITADO,32,PADRE PIO ,,SATURNO CASI VENUS,S/N,,,,,LAS MARIAS,4223 87 48,,0.0,0.0,0.0,0.0,0.0,0.0,0.0,,,,,,,,,,,SATURNO CASI VENUS S/N,-34.876585913829025,-54.96999839171576,,1.0
MALDONADO - HABILITADO_033,MALDONADO,NINGUNA,HABILITADO,33,F.IN.IN.,,25 DE AGOSTO,840,,,,,SAN CARLOS,4266 5066,,0.0,0.0,0.0,0.0,0.0,0.0,0.0,,,,,,,,,,,25 DE AGOSTO 840,-34.89636354159423,-54.96407254606507,,1.0
MALDONADO - HABILITADO_034,MALDONADO,NINGUNA,HABILITADO,34,LATINOAMERICANO,-,GUTIERREZ RUIZ,771,,,,,MALDONADO,42238495,,0.0,0.0,0.0,0.0,0.0,0.0,0.0,,,,,,,,,,,GUTIERREZ RUIZ 771,-34.903001315167515,-54.958191735594184,,1.0
MALDONADO - HABILITADO_035,MALDONADO,NINGUNA,HABILITADO,35,INSTITUTO FERNANDINO,T,RINCÓN,1128,,,,,MALDONADO,4224 28 97,,0.0,0.0,0.0,0.0,0.0,0.0,0.0,,,,,,,,,,,RINCÓN 1128,-34.903193714406726,-54.95536160248463,,1.0
MALDONADO - HABILITADO_036,MALDONADO,NINGUNA,HABILITADO,36,OLIVOS,D,ESMERALDA ENTRE AMATISTA Y TURMALINA,,,,,,MALDONADO,4225 85 38,,0.0,0.0,0.0,0.0,0.0,0.0,0.0,,,,,,,,,,,ESMERALDA ENTRE AMATISTA Y TURMALINA,-34.905421,-54.942048,,3.0
MALDONADO - HABILITADO_037,MALDONADO,NINGUNA,HABILITADO,37,INSITUTO GAIA,D,CALLE 30 ENTRE 48 Y 49,,,,,,BAL. BS. AS. RUTA 10,4277 4159,,0.0,0.0,0.0,0.0,0.0,0.0,0.0,,,,,,,,,,,CALLE 30 ENTRE 48 Y 49,-34.879177384528454,-54.98861954288857,,1.0
MALDONADO - HABILITADO_038,MALDONADO,NINGUNA,HABILITADO,38,EMY EDUCA SCHOOL,D,ZELMAR MICHELLINI Y LOS MIRLOS,,,,,,MALDONADO,4223 8390,,0.0,0.0,0.0,0.0,0.0,0.0,0.0,,,,,,,,,,,ZELMAR MICHELLINI Y LOS MIRLOS,-34.907320445991004,-54.96089860308596,,1.0
MALDONADO - HABILITADO_039,MALDONADO,NINGUNA,HABILITADO,39,LA COLMENA,D,CAMINO VECINAL EX RUTA 109 KM 23,,,,,,SIERRA DE ROCHA/ PUNTA DE ALFERES,4440 6714,,0.0,0.0,0.0,0.0,0.0,0.0,0.0,,,,,,,,,,,CAMINO VECINAL EX RUTA 109 KM 23,-34.9087162,-54.9582718,,4.0
MALDONADO - HABILITADO_040,MALDONADO,NINGUNA,HABILITADO,40,BLUE BLUE ELEFANTE,D,AVDA. JUANA DE AMERICA ENTRE R. RISO Y CAYETANO SILVA,,,,,,SAN CARLOS,4277 37 37,,0.0,0.0,0.0,0.0,0.0,0.0,0.0,,,,,,,,,,,AVDA. JUANA DE AMERICA ENTRE R. RISO Y CAYETANO SILVA,-34.9016607775341,-54.87027366123903,,1.0
MALDONADO - HABILITADO_041,MALDONADO,NINGUNA,HABILITADO,41,INTERNATIONAL COLLEGE,D,BR. ARTIGAS Y AVDA. DEL MAR,,,,,,PUNTA DEL ESTE,4222 8888,,0.0,0.0,0.0,0.0,0.0,0.0,0.0,,,,,,,,,,,BR. ARTIGAS Y AVDA. DEL MAR,-34.90938741001126,-54.96302510817328,,1.0
MALDONADO - HABILITADO_042,MALDONADO,NINGUNA,HABILITADO,42,DREAMDAYS COLLEGE,D,MERCEDES entre PRADO Y LOUVRE,,,,,,PUNTA DEL ESTE,4224 9199,,0.0,0.0,0.0,0.0,0.0,0.0,0.0,,,,,,,,,,,MERCEDES entre PRADO Y LOUVRE,-34.920629012120095,-54.9447881634131,,1.0
MALDONADO - CH_043,MALDONADO,NINGUNA,HABILITADO,43,COLEGIO MERAKI,D,CALLE N.º49 LA CABALLADA-BALNEARIO BUENOS AIRES,,,,,,BAL. BS. AS. ,99688486,,,,,,,,,,,,,,,,,,,CALLE N.º49 LA CABALLADA-BALNEARIO BUENOS AIRES,-34.8877770168338,-54.79379353777834,,1.0
MALDONADO - CH_044,MALDONADO,NINGUNA,HABILITADO,44,THE NEW SCHOOL,D,CAMINO AL CERRO EGUZQUIZA Y CAMINO VECINAL,,,,,,BARRA DE MALDONADO,98311068,,,,,,,,,,,,,,,,,,,CAMINO AL CERRO EGUZQUIZA Y CAMINO VECINAL,-34.87836394622126,-54.99079308061038,,1.0
MALDONADO - CH_045,MALDONADO,NINGUNA,HABILITADO,45,INSTITUTO EDUCACIÓN EVANGELICO (I.E.E),D,JOAQUIN DE VIANA,873,,,,,MALDONADO,4224 2292,,,,,,,,,,,,,,,,,,,JOAQUIN DE VIANA 873,-34.90802773877399,-54.963523091649634,,1.0
,MALDONADO,NINGUNA,HABILITADO,46,LUZ DEL SOL,D,CAMINO LUSSICH ,S/N,,,,,PUNTA BALLENA,098 06 16 06,,,,,,,,,,,,,,,,,,,CAMINO LUSSICH  S/N,-34.88452920535587,-55.02818071041292,,1.0
,MALDONADO,NINGUNA,HABILITADO,47,ESPACIO EDUCATIVO INTEGRAL SOL Y LUNA,,PELICANO ESQ. TEROS,,,,,,MALDONADO,4225 8099,,,,,,,,,,,,,,,,,,,PELICANO ESQ. TEROS,-34.901152292626975,-54.9671375082829,,1.0
,MALDONADO,NINGUNA,HABILITADO,48,BICHITOS DE LUZ,,ACUÑA DE FIGUEROA Y AVDA. ROOSEVELT,,,,,,MALDONADO,4224 4485,,,,,,,,,,,,,,,,,,,ACUÑA DE FIGUEROA Y AVDA. ROOSEVELT,-34.929713839360765,-54.94457158680894,,1.0
,MALDONADO,NINGUNA,HABILITADO,49,IKIGAI,,PEJERREYES ESQ. TIBURONES,,,,,,PUNTA DEL ESTE,099 909 198,,,,,,,,,,,,,,,,,,,PEJERREYES ESQ. TIBURONES,-34.89842745497661,-54.80889914963892,,1.0
,MALDONADO,NINGUNA,AUTORIZADO,1,GARZON SCHOOL,,GERARDO MATTOS RODRIGUEZ ESQ. CARLOS CARDEL,,,,,,MALDONADO,098 506 085,,,,,,,,,,,,,,,,,,,GERARDO MATTOS RODRIGUEZ ESQ. CARLOS CARDEL,-34.90751053155879,-54.86873965344463,,1.0
MALDONADO - JARDIN_006,MALDONADO,NINGUNA,JARDIN,6,SOMOS AMIGOS,-,ARAZA,853,,,,,MALDONADO,422-24818,,0.0,0.0,0.0,0.0,0.0,0.0,0.0,,,,,,,,,,,ARAZA 853,-34.90813154233961,-54.96557527903004,,1.0
MALDONADO - JARDIN_008,MALDONADO,NINGUNA,JARDIN,8,RAYITO DE SOL,-,GUTIERREZ RUIZ,619,,,,,MALDONADO,422-22897,,0.0,0.0,0.0,0.0,0.0,0.0,0.0,,,,,,,,,,,GUTIERREZ RUIZ 619,-34.902932205855386,-54.95473884084677,,1.0
MALDONADO - ESPECIAL_003,MALDONADO,NINGUNA,ESPECIAL,3,CADIM,-,AV. M. CHIOSSI Y BURNET,S/N,,,,,MALDONADO,4224 4857,,0.0,0.0,0.0,0.0,0.0,0.0,0.0,,,,,,,,,,,AV. M. CHIOSSI Y BURNET S/N,-34.905421,-54.942048,,3.0
MALDONADO - ESPECIAL_004,MALDONADO,NINGUNA,ESPECIAL,4,CRECIENDO JUNTOS,-,SAN CARLOS,779,Cno. A LA LAGUNA y PEZ AUSTRAL,S/N (*),,,MALDONADO,42-250314 / 42-246823(*),,0.0,0.0,0.0,0.0,0.0,0.0,0.0,,,,,,,,,,,SAN CARLOS 779,-34.90953784391742,-54.95456085716598,,1.0
MALDONADO - ESPECIAL_005,MALDONADO,NINGUNA,ESPECIAL,5,CEN. DE ESTUD. DEL NIÑO ESPECIAL (C.E.N.E.),-,JOAQUIN SUAREZ y PIEDRAS,S/N,,,,,SAN CARLOS,42-235755,,0.0,0.0,0.0,0.0,0.0,0.0,0.0,,,,,,,,,,,JOAQUIN SUAREZ y PIEDRAS S/N,-34.90318235380166,-54.94950924658252,,1.0
MALDONADO - ESPECIAL_006,MALDONADO,NINGUNA,ESPECIAL,6,INSTITUTO DE EDUCACION INTEGRAL (I.D.E.I.),-,18 DE JULIO,630,,,,,SAN CARLOS,46-269387,,0.0,0.0,0.0,0.0,0.0,0.0,0.0,,,,,,,,,,,18 DE JULIO 630,-34.91212004599474,-54.958481711305566,,1.0
PAYSANDÚ - HABILITADO_002,PAYSANDÚ,NINGUNA,HABILITADO,2,Ntra. Sra. DEL HUERTO,T,FLORIDA,1137,,,,,PAYSANDU,472-22358,,0.0,0.0,0.0,0.0,0.0,0.0,0.0,,,,,,,,,,,FLORIDA 1137,-32.316578155034925,-58.08186444926708,,1.0
PAYSANDÚ - HABILITADO_004,PAYSANDÚ,NINGUNA,HABILITADO,4,Ntra. Sra. DEL ROSARIO,T,FLORIDA,1278,,,,,PAYSANDU,472 22361,,0.0,0.0,0.0,0.0,0.0,0.0,0.0,,,,,,,,,,,FLORIDA 1278,-32.317078567982335,-58.07946898114714,,1.0
PAYSANDÚ - HABILITADO_005,PAYSANDÚ,NINGUNA,HABILITADO,5,ADVENTISTA  ARTIGAS,D,URUGUAY,1176,,,,,PAYSANDU,472-37786,,0.0,0.0,0.0,0.0,0.0,0.0,0.0,,,,,,,,,,,URUGUAY 1176,-32.31565317638728,-58.08190646033027,,1.0
PAYSANDÚ - HABILITADO_006,PAYSANDÚ,NINGUNA,HABILITADO,6,PADRE JOSE BENITO LAMAS,T,INDEPENDENCIA,629,,,,,PAYSANDU,472-27943,,0.0,0.0,0.0,0.0,0.0,0.0,0.0,,,,,,,,,,,INDEPENDENCIA 629,-32.322504113320036,-58.09000446326764,,1.0
PAYSANDÚ - HABILITADO_007,PAYSANDÚ,NINGUNA,HABILITADO,7,LIBERTY SCHOOL,D,Av. SALTO y LIBERTAD,-,,,,,PAYSANDU,472-31718,,0.0,0.0,0.0,0.0,0.0,0.0,0.0,,,,,,,,,,,Av. SALTO y LIBERTAD -,-32.308865797297656,-58.08991213966235,,1.0
PAYSANDÚ - HABILITADO_008,PAYSANDÚ,NINGUNA,HABILITADO,8,INTEGRAL MAFALDA,T,SARANDI,1700,,,,,PAYSANDU,472-26199,,0.0,0.0,0.0,0.0,0.0,0.0,0.0,,,,,,,,,,,SARANDI 1700,-32.32034274057314,-58.070275559220065,,1.0
PAYSANDÚ - HABILITADO_009,PAYSANDÚ,NINGUNA,HABILITADO,9,MASTER,D,ITUZAINGÓ,1185,,,,,PAYSANDÚ,4723-4467,,0.0,0.0,0.0,0.0,0.0,0.0,0.0,,,,,,,,,,,ITUZAINGÓ 1185,-32.32016096092328,-58.082413990533716,,1.0
PAYSANDÚ - HABILITADO_010,PAYSANDÚ,NINGUNA,HABILITADO,10,LOS CANDILES,D,Dr. LUIS ALBERTO DE HERRERA,714,,,,,PAYSANDU,4722-0289,,0.0,0.0,0.0,0.0,0.0,0.0,0.0,,,,,,,,,,,Dr. LUIS ALBERTO DE HERRERA 714,-32.32204591337968,-58.08382278193084,,1.0
PAYSANDÚ - AUTORIZADO_002,PAYSANDÚ,NINGUNA,AUTORIZADO,2,ESTABLECIMIENTO DEL CERRO,D,PASO DEL CERRO DEL QUEGUAY,S/N,,,,,PARAJE,099 830 335,,0.0,0.0,0.0,0.0,0.0,0.0,0.0,,,,,,,,,,,PASO DEL CERRO DEL QUEGUAY S/N,-32.3217257,-58.0892136,,4.0
PAYSANDÚ - JARDIN_003,PAYSANDÚ,NINGUNA,JARDIN,3,EL JARDIN DE MIRTHA,-,CERRITO,820,,,,,PAYSANDU,4722 15 32,,0.0,0.0,0.0,0.0,0.0,0.0,0.0,,,,,,,,,,,CERRITO 820,-32.32036759414718,-58.077157596356805,,1.0
PAYSANDÚ - ESPECIAL_001,PAYSANDÚ,NINGUNA,ESPECIAL,1,INST. TUGUA,-,RUTA 3 Km 486,,,,,,TERMAS DEL DAYMÁN,4736 97 17,,0.0,0.0,0.0,0.0,0.0,0.0,0.0,,,,,,,,,,,RUTA 3 Km 486,-31.46289460675003,-57.90021735284181,,1.0
PAYSANDÚ - ESPECIAL_002,PAYSANDÚ,NINGUNA,ESPECIAL,2,AMIGOS,-,LEANDRO GOMEZ,1058,,,,,PAYSANDÚ,4724 26 82,,0.0,0.0,0.0,0.0,0.0,0.0,0.0,,,,,,,,,,,LEANDRO GOMEZ 1058,-32.31812664789529,-58.08495291763254,,1.0
PAYSANDÚ - ESPECIAL_003,PAYSANDÚ,NINGUNA,ESPECIAL,3,MOIRÚ,-,INTENDENCIA,762,,,,,PAYSANDÚ,4722 40 85,,0.0,0.0,0.0,0.0,0.0,0.0,0.0,,,,,,,,,,,INTENDENCIA 762,-32.32004463326569,-58.089119176452826,,1.0
PAYSANDÚ - ESPECIAL_004,PAYSANDÚ,NINGUNA,ESPECIAL,4,A.PRO.DI.ME.,-,Av. ENRIQUE CHAPLIN,626,,,,,PAYSANDÚ,472.20.090,,0.0,0.0,0.0,0.0,0.0,0.0,0.0,,,,,,,,,,,Av. ENRIQUE CHAPLIN 626,-32.32163638794354,-58.05898143316121,,1.0
PAYSANDÚ - ESPECIAL_005,PAYSANDÚ,NINGUNA,ESPECIAL,5,ASOC. DE APOYO AL DISC. VISUAL (AS.A.DI.VI.),-,TACUAREMBO y INDEPENDENCIA,-,,,,,,472.35.510,,0.0,0.0,0.0,0.0,0.0,0.0,0.0,,,,,,,,,,,TACUAREMBO y INDEPENDENCIA -,-32.32120956275921,-58.0895734392939,,1.0
RÍO NEGRO - HABILITADO_001,RÍO NEGRO,NINGUNA,HABILITADO,1,SAN JOSE,D,ZORRILA y 25 DE AGOSTO,S/N,,,,,FRAY BENTOS,456-23826,,0.0,0.0,0.0,0.0,0.0,0.0,0.0,,,,,,,,,,,ZORRILA y 25 DE AGOSTO S/N,-32.7031291125,-57.622553948100006,,1.0
RÍO NEGRO - HABILITADO_002,RÍO NEGRO,NINGUNA,HABILITADO,2,LAURELES DE LA INMACULADA,T,Cno. BATLLE Y ORDOÑEZ y Cno. STIGILIANI,S/N,,,,,FRAY BENTOS,456-22592,,0.0,0.0,0.0,0.0,0.0,0.0,0.0,,,,,,,,,,,Cno. BATLLE Y ORDOÑEZ y Cno. STIGILIANI S/N,-33.124181664754296,-58.30932583322312,,1.0
RÍO NEGRO - HABILITADO_003,RÍO NEGRO,NINGUNA,HABILITADO,3,SAN VICENTE DE PAUL,D,HERVIDERO,1896,,,,,YOUNG,456-72244,,0.0,0.0,0.0,0.0,0.0,0.0,0.0,,,,,,,,,,,HERVIDERO 1896,-32.70394164880072,-57.62482668174379,,1.0
RÍO NEGRO - HABILITADO_005,RÍO NEGRO,NINGUNA,HABILITADO,5,YOUNG DAY SCHOOL,D,ASENCIO,-,,,,,YOUNG,456-72832,,0.0,0.0,0.0,0.0,0.0,0.0,0.0,,,,,,,,,,,ASENCIO -,-32.70661391954788,-57.63175198060774,,1.0
RÍO NEGRO - HABILITADO_006,RÍO NEGRO,NINGUNA,HABILITADO,6,FRAY BENTOS,D,25 DE AGOSTO,3296,,,,,FRAY BENTOS,4562 18 40,,0.0,0.0,0.0,0.0,0.0,0.0,0.0,,,,,,,,,,,25 DE AGOSTO 3296,-32.70024467488094,-57.62706362820234,,1.0
RÍO NEGRO - AUTORIZADO_001,RÍO NEGRO,NINGUNA,AUTORIZADO,1,ESCUELA ALEMANA COLONIA GARTENTAL,M, SAN JAVIER,-,,,,,COLONIA GARTENTAL,4560 98 33,,0.0,0.0,0.0,0.0,0.0,0.0,0.0,,,,,,,,,,, SAN JAVIER -,-32.583359660770725,-58.05968782675647,,1.0
RÍO NEGRO - AUTORIZADO_002,RÍO NEGRO,NINGUNA,AUTORIZADO,2,MENNONITA EL OMBU,M,COLONIA EL OMBU Km 284,S/N,,,,,YOUNG,456-72725,,0.0,0.0,0.0,0.0,0.0,0.0,0.0,,,,,,,,,,,COLONIA EL OMBU Km 284 S/N,-32.701637165076555,-57.624898213156875,,1.0
RÍO NEGRO - ESPECIAL_001,RÍO NEGRO,NINGUNA,ESPECIAL,1,INSTITUTO INTEGRAL DE RIO NEGRO,-,25 DE AGOSTO,3168,,,,,FRAY BENTOS,456-29339,,0.0,0.0,0.0,0.0,0.0,0.0,0.0,,,,,,,,,,,25 DE AGOSTO 3168,-32.70154049025408,-57.624077750245476,,1.0
RIVERA - HABILITADO_001,RIVERA,NINGUNA,HABILITADO,1,MARIA INMACULADA TERESIANO,T,MONSEÑOR VERA,1186,,,,,RIVERA,462-23384,,0.0,0.0,0.0,0.0,0.0,0.0,0.0,,,,,,,,,,,MONSEÑOR VERA 1186,-30.900951649702254,-55.538301240183365,,1.0
RIVERA - HABILITADO_004,RIVERA,NINGUNA,HABILITADO,4,RODO,D,URUGUAY,716,,,,,RIVERA,462-29105,,0.0,0.0,0.0,0.0,0.0,0.0,0.0,,,,,,,,,,,URUGUAY 716,-30.90149411048937,-55.54368163878576,,1.0
RIVERA - HABILITADO_006,RIVERA,NINGUNA,HABILITADO,6,SAINT CATHERINE'S SCHOOL,T,ITUZAINGÓ,696,,,,,RIVERA,462-31432,,0.0,0.0,0.0,0.0,0.0,0.0,0.0,,,,,,,,,,,ITUZAINGÓ 696,-30.90265532279022,-55.54057836574493,,1.0
RIVERA - HABILITADO_007,RIVERA,NINGUNA,HABILITADO,7,ESC. NATURAL E INTEGRAL DE RIVERA (E.N.I.R.),D,Bv. JOSÉ BATLLE Y ORDOÑEZ,925,,,,,RIVERA,4622 5818,,0.0,0.0,0.0,0.0,0.0,0.0,0.0,,,,,,,,,,,Bv. JOSÉ BATLLE Y ORDOÑEZ 925,-30.908282079716283,-55.539187287399486,,1.0
RIVERA - HABILITADO_008,RIVERA,NINGUNA,HABILITADO,8,ESCUELA CRISTIANA,D,PANTALEON QUESADA,725,,,,,RIVERA,462-31290,,0.0,0.0,0.0,0.0,0.0,0.0,0.0,,,,,,,,,,,PANTALEON QUESADA 725,-30.900232921870124,-55.54617541548711,,1.0
RIVERA - HABILITADO_009,RIVERA,NINGUNA,HABILITADO,9,JUAN PABLO II,D,Gral. JOSE ARTIGAS,264,,,,,RIVERA,462-25208,,0.0,0.0,0.0,0.0,0.0,0.0,0.0,,,,,,,,,,,Gral. JOSE ARTIGAS 264,-30.89278298694958,-55.555637045024156,,1.0
RIVERA - HABILITADO_010,RIVERA,NINGUNA,HABILITADO,10,GREEN LAND SCHOOL,D,Gral. ARTIGAS,1134,,,,,RIVERA,4623 7046,,,,,,,,,,,,,,,,,,,Gral. ARTIGAS 1134,-30.90114279137491,-55.53996784106684,,1.0
RIVERA - HABILITADO_011,RIVERA,NINGUNA,HABILITADO,11,JULIO VERNE,,FAUSTINO CARAMBULA,1126,,,,,RIVERA,98792152,,,,,,,,,,,,,,,,,,,FAUSTINO CARAMBULA 1126,-30.89947006821467,-55.53900453946054,,1.0
RIVERA - ESPECIAL_001,RIVERA,NINGUNA,ESPECIAL,1,CEN. ED. DE REHABILITACION INTEGRAL (C.E.R.I.),-,ITUZAINGÓ,1228,,,,,RIVERA,462-32058,,0.0,0.0,0.0,0.0,0.0,0.0,0.0,,,,,,,,,,,ITUZAINGÓ 1228,-30.9073598303451,-55.543729252177144,,1.0
RIVERA - ESPECIAL_002,RIVERA,NINGUNA,ESPECIAL,2,A.P.A.D.I.R.,-,ARTIGAS,1284,,,,,,4622 0747,,0.0,0.0,0.0,0.0,0.0,0.0,0.0,,,,,,,,,,,ARTIGAS 1284,-30.902529125982966,-55.537302354456635,,1.0
ROCHA - ESPECIAL_001,ROCHA,NINGUNA,ESPECIAL,1,CEN. DE AYUDA AL DISCAPACITADO (C.A.DI.),,18 DE JULIO,1935,NUÑEZ CASTILLO,1296(*),,,ROCHA / CASTILLOS(*),4472 0811 / 4475 9658 (*),(*) CENTRO DE AYUDA AL DISCAPACITADO (anexo),0.0,0.0,0.0,0.0,0.0,0.0,0.0,,,,,,,,,,,18 DE JULIO 1935,-34.47888134096584,-54.33690644200264,,1.0
ROCHA - ESPECIAL_003,ROCHA,NINGUNA,ESPECIAL,3,C.R.I.I.A.R.,,JOSE ENRIQUE RODO,34,,,,,ROCHA,44720877,,0.0,0.0,0.0,0.0,0.0,0.0,0.0,,,,,,,,,,,JOSE ENRIQUE RODO 34,-34.484385227420425,-54.33634700592354,,1.0
ROCHA - HABILITADO_001,ROCHA,NINGUNA,HABILITADO,1,DAMASO ANTONIO LARRAÑAGA,D,RINCON,117,,,,,ROCHA,447- 22519,,0.0,0.0,0.0,0.0,0.0,0.0,0.0,,,,,,,,,,,RINCON 117,-34.47950088919632,-54.3372481551646,,1.0
ROCHA - HABILITADO_002,ROCHA,NINGUNA,HABILITADO,2,SAN JOSE,T,JOSE PEDRO RAMIREZ,203,,,,,ROCHA,447-22631,,0.0,0.0,0.0,0.0,0.0,0.0,0.0,,,,,,,,,,,JOSE PEDRO RAMIREZ 203,-34.48395925510853,-54.332690494397426,,1.0
ROCHA - HABILITADO_003,ROCHA,NINGUNA,HABILITADO,3,MARIA AUXILIADORA,D,MISIONES,1358,,,,,LASCANO,445-69042,,0.0,0.0,0.0,0.0,0.0,0.0,0.0,,,,,,,,,,,MISIONES 1358,-33.67688276147302,-54.20889246388252,,1.0
ROCHA - HABILITADO_006,ROCHA,NINGUNA,HABILITADO,6,CEN. DE ENSEÑANZA INTEGRAL (C.E.I.),T,TREINTA Y TRES,2049,,,,,ROCHA,447-28796,,0.0,0.0,0.0,0.0,0.0,0.0,0.0,,,,,,,,,,,TREINTA Y TRES 2049,-34.47972628244515,-54.334439267728214,,1.0
SALTO - HABILITADO_001,SALTO,NINGUNA,HABILITADO,1,Ntra. Sra. DEL CARMEN,D,Gral ARTIGAS,543,,,,,SALTO,473-34004,,0.0,0.0,0.0,0.0,0.0,0.0,0.0,,,,,,,,,,,Gral ARTIGAS 543,-31.388166966109306,-57.96891160486091,,1.0
SALTO - HABILITADO_002,SALTO,NINGUNA,HABILITADO,2,COOP. DEL COL. Y LICEO INMACULADA CONCEPCION,T,Gral. ARTIGAS,838,,,,,SALTO,473-32229,,0.0,0.0,0.0,0.0,0.0,0.0,0.0,,,,,,,,,,,Gral. ARTIGAS 838,-31.388937556103755,-57.96494970757319,,1.0
SALTO - HABILITADO_003,SALTO,NINGUNA,HABILITADO,3,CRANDON,T,AGRACIADA,1145,,,,,SALTO,473-33754,,0.0,0.0,0.0,0.0,0.0,0.0,0.0,,,,,,,,,,,AGRACIADA 1145,-31.384842158386775,-57.959936999102396,,1.0
SALTO - HABILITADO_004,SALTO,NINGUNA,HABILITADO,4,MARIA AUXILIADORA,D,LAS PIEDRAS,69,,,,,SALTO,473-32342,,0.0,0.0,0.0,0.0,0.0,0.0,0.0,,,,,,,,,,,LAS PIEDRAS 69,-31.38943719259297,-57.9556991268202,,1.0
SALTO - HABILITADO_005,SALTO,NINGUNA,HABILITADO,5,SAGRADA FAMILIA,T,MISIONES y URUGUAY,6,,,,,SALTO,473-32386,,0.0,0.0,0.0,0.0,0.0,0.0,0.0,,,,,,,,,,,MISIONES y URUGUAY 6,-31.387208199481275,-57.96813381107342,,1.0
SALTO - HABILITADO_007,SALTO,NINGUNA,HABILITADO,7,PARROQUIAL SANTA CRUZ,T,DIAGONAL CENTENARIO,2242,,,,,SALTO,473-27743,,0.0,0.0,0.0,0.0,0.0,0.0,0.0,,,,,,,,,,,DIAGONAL CENTENARIO 2242,-31.38537167921617,-57.94439972655074,,1.0
SALTO - HABILITADO_009,SALTO,NINGUNA,HABILITADO,9,Dr. CARLOS VAZ FERREIRA,T,INVERNIZZI,147,,,,,SALTO,473-30920,,0.0,0.0,0.0,0.0,0.0,0.0,0.0,,,,,,,,,,,INVERNIZZI 147,-31.386608562778108,-57.959712341846696,,1.0
SALTO - HABILITADO_010,SALTO,NINGUNA,HABILITADO,10,LOS ROBLES,D,URUGUAY,1055,,,,,SALTO,47328269,,0.0,0.0,0.0,0.0,0.0,0.0,0.0,,,,,,,,,,,URUGUAY 1055,-31.387731054188627,-57.96174040058868,,1.0
SALTO - JARDIN_001,SALTO,NINGUNA,JARDIN,1,MATERNAL DE MARIA,-,SANTA ROSA y PARAGUAY,-,,,,,SALTO,,,0.0,0.0,0.0,0.0,0.0,0.0,0.0,,,,,,,,,,,SANTA ROSA y PARAGUAY -,-31.376328819813203,-57.969448526779914,,1.0
SALTO - JARDIN_003,SALTO,NINGUNA,JARDIN,3,EL JARDIN DE ANA,-,FLORENCIO SANCHEZ,149,,,,,SALTO,473-25012,,0.0,0.0,0.0,0.0,0.0,0.0,0.0,,,,,,,,,,,FLORENCIO SANCHEZ 149,-31.388789782295344,-57.96970836372561,,1.0
SALTO - JARDIN_004,SALTO,NINGUNA,JARDIN,4,BOTON TOLON,-,25 DE AGOSTO,135,,,,,SALTO,473-32356,,0.0,0.0,0.0,0.0,0.0,0.0,0.0,,,,,,,,,,,25 DE AGOSTO 135,-31.389980585518163,-57.96025273027399,,1.0
SALTO - JARDIN_006,SALTO,NINGUNA,JARDIN,6,ECO JARDIN INFANTIL,-,RIVERA,767,,,,,SALTO,473-38650,,0.0,0.0,0.0,0.0,0.0,0.0,0.0,,,,,,,,,,,RIVERA 767,-31.389751939168768,-57.96630887282574,,1.0
SALTO - JARDIN_007,SALTO,NINGUNA,JARDIN,7,MANUELITA,-,WASHINGTON BELTRAN,261,,,,,SALTO,473-36361,,0.0,0.0,0.0,0.0,0.0,0.0,0.0,,,,,,,,,,,WASHINGTON BELTRAN 261,-31.39202899035847,-57.953672989047085,,1.0
SALTO - ESPECIAL_001,SALTO,NINGUNA,ESPECIAL,1,CE.D.Y.R.P.,-,ZORRILLA DE SAN MARTIN,33,,,,,SALTO,473-33348,,0.0,0.0,0.0,0.0,0.0,0.0,0.0,,,,,,,,,,,ZORRILLA DE SAN MARTIN 33,-31.38669058513659,-57.969473508827846,,1.0
SALTO - ESPECIAL_002,SALTO,NINGUNA,ESPECIAL,2,CEN. EDUCATIVO PARA NIÑOS AUTISTAS,-,Av. BRASIL,497,,,,,SALTO,473-20152,,0.0,0.0,0.0,0.0,0.0,0.0,0.0,,,,,,,,,,,Av. BRASIL 497,-31.38577768895837,-57.969299963008865,,1.0
SALTO - ESPECIAL_003,SALTO,NINGUNA,ESPECIAL,3,EVOLUCION,-,RIVERA,958,,,,,SALTO,473-30671/72,,0.0,0.0,0.0,0.0,0.0,0.0,0.0,,,,,,,,,,,RIVERA 958,-31.390078645554247,-57.96365733736365,,1.0
SALTO - ESPECIAL_004,SALTO,NINGUNA,ESPECIAL,4,INSTITUTO CRECER,-,ARTIGAS,755,,,,,SALTO,4732 1780,,0.0,0.0,0.0,0.0,0.0,0.0,0.0,,,,,,,,,,,ARTIGAS 755,-31.388538704906075,-57.96639720232461,,1.0
SAN JOSÉ - HABILITADO_001,SAN JOSÉ,NINGUNA,HABILITADO,1,LA INMACULADA,D,LEON JUDE,S/N,,,,,VILLA RODRIGUEZ,4348- 2015,,0.0,0.0,0.0,0.0,0.0,0.0,0.0,,,,,,,,,,,LEON JUDE S/N,-34.37961039616123,-56.544802593895646,,1.0
SAN JOSÉ - HABILITADO_002,SAN JOSÉ,NINGUNA,HABILITADO,2,SAN JOSE,D,DR. LUIS MORQUIO,946,,,,,LIBERTAD,4345-2169,,0.0,0.0,0.0,0.0,0.0,0.0,0.0,,,,,,,,,,,DR. LUIS MORQUIO 946,-34.569047616679505,-56.6911663999872,,1.0
SAN JOSÉ - HABILITADO_003,SAN JOSÉ,NINGUNA,HABILITADO,3,Ntra. Sra. DEL HUERTO,T,18 DE JULIO,663,,,,,SAN JOSE DE MAYO,4342 3485,,0.0,0.0,0.0,0.0,0.0,0.0,0.0,,,,,,,,,,,18 DE JULIO 663,-34.33831473943966,-56.71060399381954,,1.0
SAN JOSÉ - HABILITADO_004,SAN JOSÉ,NINGUNA,HABILITADO,4,SAGRADA FAMILIA,T,ASAMBLEA,702,,,,,SAN JOSE DE MAYO,4342- 3446,,0.0,0.0,0.0,0.0,0.0,0.0,0.0,,,,,,,,,,,ASAMBLEA 702,-34.33932393697085,-56.70909888763917,,1.0
SAN JOSÉ - HABILITADO_007,SAN JOSÉ,NINGUNA,HABILITADO,7,KINDER OUR SCHOOL,D,LARRAÑAGA,426,,,,,SAN JOSE DE MAYO,4342 85 34,,0.0,0.0,0.0,0.0,0.0,0.0,0.0,,,,,,,,,,,LARRAÑAGA 426,-34.84169126462662,-55.99193158318628,,1.0
SAN JOSÉ - HABILITADO_008,SAN JOSÉ,NINGUNA,HABILITADO,8,ESCUELA DEL PLATA,D,"RUTA 1 KM 31,500",,,,,,SAN JOSE ,099 35 46 90 / 098 76 19 61,,0.0,0.0,0.0,0.0,0.0,0.0,0.0,,,,,,,,,,,"RUTA 1 KM 31,500",-34.745608917174295,-56.43849297997623,,1.0
SAN JOSÉ - AUTORIZADO_001,SAN JOSÉ,NINGUNA,AUTORIZADO,1,ALEMAN DELTA,M, ECILDA PAULLIER,S/N,,,,,COLONIA DELTA,098 77 65 52,,0.0,0.0,0.0,0.0,0.0,0.0,0.0,,,,,,,,,,, ECILDA PAULLIER S/N,-34.356782978317035,-57.047040475415685,,1.0
SAN JOSÉ - JARDIN_001,SAN JOSÉ,NINGUNA,JARDIN,1,ARCO IRIS,-,MEDINA,961,,,,,LIBERTAD,4345-3492,,0.0,0.0,0.0,0.0,0.0,0.0,0.0,,,,,,,,,,,MEDINA 961,-34.634061029074765,-56.61968082364229,,1.0
SORIANO - HABILITADO_002,SORIANO,NINGUNA,HABILITADO,2,URUGUAYAN AMERICAN SCHOOL,D,18 DE JULIO,538,,,,,MERCEDES,453-23962,,0.0,0.0,0.0,0.0,0.0,0.0,0.0,,,,,,,,,,,18 DE JULIO 538,-33.399468688442205,-58.324272410045346,,1.0
SORIANO - HABILITADO_003,SORIANO,NINGUNA,HABILITADO,3,SAN MIGUEL,-,Gral. ARTIGAS,500,,,,,MERCEDES,453-22264,,0.0,0.0,0.0,0.0,0.0,0.0,0.0,,,,,,,,,,,Gral. ARTIGAS 500,-33.61047820001202,-57.61754919999494,,1.0
SORIANO - HABILITADO_006,SORIANO,NINGUNA,HABILITADO,6,SAN SALVADOR,D,CARLOS P. PUIG,1617,,,,,DOLORES,4534 37 81,,0.0,0.0,0.0,0.0,0.0,0.0,0.0,,,,,,,,,,,CARLOS P. PUIG 1617,-33.52968240162722,-58.21674268431183,,1.0
SORIANO - JARDIN_002,SORIANO,NINGUNA,JARDIN,2,SOL Y LUNA,-,PAYSANDU,862,,,,,MERCEDES,4532 95 69,,0.0,0.0,0.0,0.0,0.0,0.0,0.0,,,,,,,,,,,PAYSANDU 862,-33.40464413182422,-58.32037327982175,,1.0
SORIANO - ESPECIAL_001,SORIANO,NINGUNA,ESPECIAL,1,INST. SORIANO,-,SARANDI,482,,,,,MERCEDES,453-21474,,0.0,0.0,0.0,0.0,0.0,0.0,0.0,,,,,,,,,,,SARANDI 482,-33.39097684972392,-58.31996046533162,,1.0
SORIANO - ESPECIAL_002,SORIANO,NINGUNA,ESPECIAL,2,INST. DOLORES DE ATENCION INTEGRAL,-,Dr. LORENZO CARNELLI y RODO,1496,,,,,DOLORES,453-42665,,0.0,0.0,0.0,0.0,0.0,0.0,0.0,,,,,,,,,,,Dr. LORENZO CARNELLI y RODO 1496,-33.52959928136595,-58.22179557799648,,1.0
SORIANO - ESPECIAL_004,SORIANO,NINGUNA,ESPECIAL,4,INST. URUGUAY  DE ASISTENCIA INTEGRAL,-,PAYSANDU,457,ARTIGAS,298 (*),MINI,1561 (**),MERCEDES / DOLORES (**),453-24754 / 453-23397 (*) / 453-42709 (**),,0.0,0.0,0.0,0.0,0.0,0.0,0.0,,,,,,,,,,,PAYSANDU 457,-33.404142624305464,-58.32373879555478,,1.0
SORIANO - ESPECIAL_005,SORIANO,NINGUNA,ESPECIAL,5,SER FELIZ,-,JOSE P. VARELA,1472,,,,,DOLORES,4534 2951,,0.0,0.0,0.0,0.0,0.0,0.0,0.0,,,,,,,,,,,JOSE P. VARELA 1472,-33.39523969997862,-58.32332929999824,,1.0
TACUAREMBÓ - HABILITADO_001,TACUAREMBÓ,NINGUNA,HABILITADO,1,JESUS SACRAMENTADO,D,SARANDI,256,,,,,TACUAREMBO,4633 1289,,0.0,0.0,0.0,0.0,0.0,0.0,0.0,,,,,,,,,,,SARANDI 256,-31.714588380786502,-55.97971124744949,,1.0
TACUAREMBÓ - HABILITADO_002,TACUAREMBÓ,NINGUNA,HABILITADO,2,SAN JAVIER,D,Av. REPUBLICA ARGENTINA,S/N,,,,,TACUAREMBO,4632-2210,,0.0,0.0,0.0,0.0,0.0,0.0,0.0,,,,,,,,,,,Av. REPUBLICA ARGENTINA S/N,-31.7239231511667,-56.008754274588185,,1.0
TACUAREMBÓ - HABILITADO_003,TACUAREMBÓ,NINGUNA,HABILITADO,3,MARIA AUXILIADORA COLEGIO COOPERATIVA,D,ZORRILLA DE SAN MARTIN,420,,,,,PASO DE LOS TOROS,4664-2079,,0.0,0.0,0.0,0.0,0.0,0.0,0.0,,,,,,,,,,,ZORRILLA DE SAN MARTIN 420,-31.713604291360067,-56.020348292693605,,1.0
TACUAREMBÓ - HABILITADO_004,TACUAREMBÓ,NINGUNA,HABILITADO,4,NORTHLAND SCHOOL,D,,,,,,,TACUAREMBO,4632-4760,,0.0,0.0,0.0,0.0,0.0,0.0,0.0,,,,,,,,,,,,-31.710202750000008,-56.02724260000001,,1.0
TACUAREMBÓ - HABILITADO_005,TACUAREMBÓ,NINGUNA,HABILITADO,5,ENRIQUETA COMPTE Y RIQUE,D,18 DE JULIO,57,,,,,TACUAREMBO,4632 8655,,0.0,0.0,0.0,0.0,0.0,0.0,0.0,,,,,,,,,,,18 DE JULIO 57,-31.708742740732006,-55.97568316777873,,1.0
TACUAREMBÓ - HABILITADO_006,TACUAREMBÓ,NINGUNA,HABILITADO,6,REDWOOD SCHOOL,D,Av. ORIBE,418,,,,,TACUAREMBO,463-33492,,0.0,0.0,0.0,0.0,0.0,0.0,0.0,,,,,,,,,,,Av. ORIBE 418,-31.693371288180355,-55.96731522598216,,1.0
TACUAREMBÓ - HABILITADO_007,TACUAREMBÓ,NINGUNA,HABILITADO,7,JEAN PIAGET,D,25 DE MAYO,467,,,,,TACUAREMBÓ,4633 13 95,,0.0,0.0,0.0,0.0,0.0,0.0,0.0,,,,,,,,,,,25 DE MAYO 467,-31.71879071752789,-55.98803968789939,,1.0
TACUAREMBÓ - HABILITADO_008,TACUAREMBÓ,NINGUNA,HABILITADO,8,SANTA ISABEL,D,ADELAIDA PUYOL,3746/ 3878,,,,,PASO DE LOS TOROS,4664 6431,,0.0,0.0,0.0,0.0,0.0,0.0,0.0,,,,,,,,,,,ADELAIDA PUYOL 3746/ 3878,-32.80484297090943,-56.51211036713619,,1.0
TACUAREMBÓ - JARDIN_001,TACUAREMBÓ,NINGUNA,JARDIN,1,JEAN PIAGET,-,25 DE MAYO,333,,,,,,4632 41 19,,0.0,0.0,0.0,0.0,0.0,0.0,0.0,,,,,,,,,,,25 DE MAYO 333,-31.715373347238945,-55.984298868526196,,1.0
TACUAREMBÓ - JARDIN_002,TACUAREMBÓ,NINGUNA,JARDIN,2,PINOCHO,-,18 DE JULIO,216,,,,,TACUAREMBO,46341481,,0.0,0.0,0.0,0.0,0.0,0.0,0.0,,,,,,,,,,,18 DE JULIO 216,-31.712892446158342,-55.97981851372598,,1.0
TREINTA Y TRES - HABILITADO_002,TREINTA Y TRES,NINGUNA,HABILITADO,2,GLORIA ESTADEZ,M,AVELINO MIRANDA,1563,,,,,TREINTA Y TRES,44522529,,0.0,0.0,0.0,0.0,0.0,0.0,0.0,,,,,,,,,,,AVELINO MIRANDA 1563,-33.22857432613965,-54.38377529990453,,1.0
